{
    "Goorin Bros": {
        "shop": "yes", 
        "description": "hats"
    }, 
    "Sweetlabs Inc": {
        "office": "company"
    }, 
    "Las Hadas Bar & Grill": {
        "addr:housenumber": "558", 
        "cuisine": "mexican", 
        "amenity": "restaurant", 
        "website": "https://lashadasgrillsd.com/", 
        "addr:street": "4th Avenue"
    }, 
    "Nouvelle Latin Cuisine": {
        "source": "SanGIS Business Sites Public Domain (http://www.sangis.org/)", 
        "amenity": "bar"
    }, 
    "CVS": {
        "amenity": "pharmacy", 
        "brand": "CVS", 
        "brand:wikidata": "Q2078880", 
        "healthcare": "pharmacy", 
        "operator": "CVS", 
        "brand:wikipedia": "en:CVS Pharmacy"
    }, 
    "The Amazing Picture Booth Co.": {
        "addr:housenumber": "500", 
        "payment:bitcoin": "yes", 
        "addr:city": "San Diego", 
        "phone": "+1 619 438 0806", 
        "addr:postcode": "92101", 
        "website": "http://www.amazingpicturebooth.com/", 
        "source": "SanGIS Addresses Public Domain (http://www.sangis.org/)", 
        "addr:street": "5th Avenue"
    }, 
    "Smocking Gun": {
        "amenity": "restaurant"
    }, 
    "Nikki Fine Jewelers": {
        "addr:housenumber": "562", 
        "payment:bitcoin": "yes", 
        "description": "Jewelry, Fine Swiss Watches, Diamonds, BTC Vending Machine", 
        "shop": "jewelry", 
        "addr:postcode": "92101", 
        "addr:city": "San Diego", 
        "website": "http://bitcoinmerchant.com/places/nikki-fine-jewelers/", 
        "phone": "619-236-0870", 
        "opening_hours": "Mo-Sa 10:00-17:00", 
        "addr:street": "5th Avenue"
    }, 
    "Gaslamp Quarter": {
        "place": "quarter", 
        "wikidata": "Q1495203"
    }, 
    "Tacos El Cabron": {
        "addr:housenumber": "532", 
        "cuisine": "mexican", 
        "amenity": "fast_food", 
        "drive_through": "no", 
        "addr:city": "San Diego", 
        "phone": "+1 619 501 7752", 
        "addr:postcode": "92101", 
        "website": "https://tacoselcabronsd.com/", 
        "source": "SanGIS Addresses Public Domain (http://www.sangis.org/)", 
        "opening_hours": "Mo-Th 10:00-23:00; Fr,Sa 10:00-03:00; Su 10:00-20:00", 
        "addr:country": "US", 
        "addr:street": "4th Avenue"
    }, 
    "Horton House": {
        "building": "apartments", 
        "building:levels": "14"
    }, 
    "Marble Room": {
        "cuisine": "steak_house", 
        "amenity": "restaurant"
    }, 
    "Double Standard Kitchenetta & Bar": {
        "amenity": "bar"
    }, 
    "Royal India": {
        "addr:housenumber": "329", 
        "cuisine": "indian", 
        "amenity": "restaurant", 
        "website": "https://www.royalindia.com/royal-india-gaslamp.html", 
        "addr:street": "Market Street"
    }, 
    "Hostelling International San Diego": {
        "addr:housenumber": "521", 
        "addr:city": "San Diego", 
        "addr:postcode": "92101", 
        "phone": "+16195251531", 
        "tourism": "hostel", 
        "addr:country": "US", 
        "addr:street": "Market Street"
    }, 
    "BarleyMash": {
        "amenity": "pub"
    }, 
    "Ike's Place": {
        "addr:housenumber": "542", 
        "cuisine": "sandwich", 
        "amenity": "fast_food", 
        "drive_through": "no", 
        "addr:city": "San Diego", 
        "phone": "+1 619 255 2562", 
        "addr:postcode": "92101", 
        "website": "http://loveandsandwiches.com/", 
        "source": "SanGIS Addresses Public Domain (http://www.sangis.org/)", 
        "opening_hours": "11:00-21:00; Fr,Sa 11:00-03:00", 
        "addr:country": "US", 
        "addr:street": "5th Avenue"
    }, 
    "Starbucks": {
        "addr:housenumber": "345", 
        "cuisine": "coffee_shop", 
        "amenity": "cafe", 
        "brand": "Starbucks", 
        "brand:wikidata": "Q37158", 
        "takeaway": "yes", 
        "brand:wikipedia": "en:Starbucks", 
        "addr:street": "Market Street"
    }, 
    "Sing Sing Restaurant": {
        "source": "SanGIS Business Sites Public Domain (http://www.sangis.org/)", 
        "amenity": "bar"
    }, 
    "Fluxx": {
        "smoking": "outside", 
        "amenity": "bar"
    }, 
    "Library Towers": {
        "amenity": "library", 
        "gnis:county_name": "San Diego", 
        "source": "USGS Geonames", 
        "addr:state": "CA", 
        "ele": "8", 
        "gnis:reviewed": "no", 
        "gnis:import_uuid": "57871b70-0100-4405-bb30-88b2e001a944", 
        "gnis:feature_id": "2456324"
    }, 
    "Park-it-on-Market": {
        "addr:housenumber": "614", 
        "building": "commercial", 
        "amenity": "parking", 
        "addr:city": "San Diego", 
        "building:levels": "6", 
        "addr:postcode": "92101", 
        "supervised": "yes", 
        "parking": "multi-storey", 
        "addr:country": "US", 
        "addr:street": "Market Street"
    }, 
    "Lucky Brand": {
        "shop": "clothes", 
        "brand": "Lucky Brand", 
        "brand:wikidata": "Q6697865", 
        "brand:wikipedia": "en:Lucky Brand Jeans"
    }, 
    "Lions Club of San Diego": {
        "building": "garages"
    }, 
    "Alta": {
        "building": "yes", 
        "building:levels": "21", 
        "height": "76"
    }, 
    "Bang Bang": {
        "amenity": "bar"
    }, 
    "Hotel Z - A Piece of Pineapple Hospitality": {
        "building": "yes", 
        "tourism": "hotel"
    }, 
    "Fogo de Chao": {
        "addr:housenumber": "668", 
        "cuisine": "brazilian_steakhouse", 
        "amenity": "restaurant", 
        "addr:city": "San Diego", 
        "is_in:country": "United States of America", 
        "addr:postcode": "92101", 
        "is_in:city": "San Diego", 
        "is_in:country_code": "US", 
        "website": "www.fogodechao.com/", 
        "phone": "(619) 338-0500", 
        "addr:country": "US", 
        "note": "New restaurant featuring Brazilian meats and appetizer buffet.", 
        "is_in:state": "California", 
        "source": "SanGIS Addresses Public Domain (http://www.sangis.org/)", 
        "opening_hours": "Mo-Th 11:30-14:30, 17:00-22:00; Fr 11:30-14:30, 17:00-22:30; Sa 11:30-22:30; Su 11:30-21:00", 
        "addr:street": "6th Avenue", 
        "addr:housename": "Fogo de Chao", 
        "email": "sandiego@fogo.com", 
        "internet_access": "wlan"
    }, 
    "Searsucker": {
        "amenity": "pub"
    }, 
    "Tivoli Bar": {
        "source": "SanGIS Business Sites Public Domain (http://www.sangis.org/)", 
        "amenity": "bar"
    }, 
    "Blue Point": {
        "amenity": "restaurant"
    }, 
    "San Diego Trading Company": {
        "shop": "gift"
    }, 
    "American Junkie": {
        "amenity": "bar"
    }, 
    "La Puerta": {
        "addr:housenumber": "560", 
        "cuisine": "mexican", 
        "amenity": "restaurant", 
        "website": "http://www.lapuertasd.com", 
        "addr:street": "4th Avenue"
    }, 
    "William Heath Davis House Museum": {
        "building": "yes", 
        "tourism": "museum"
    }, 
    "Urban Outfitters": {
        "shop": "clothes", 
        "brand": "Urban Outfitters", 
        "brand:wikidata": "Q3552193", 
        "brand:wikipedia": "en:Urban Outfitters"
    }, 
    "Ghirardelli": {
        "addr:housenumber": "643", 
        "cuisine": "ice_cream", 
        "amenity": "restaurant", 
        "opening_hours": "Mo-Th 10:00-00:00; Fr-Su 10:00-01:00", 
        "phone": "(619) 234-2449", 
        "addr:postcode": "92101", 
        "addr:street": "5th Avenue"
    }, 
    "Dublin Square Irish Pub": {
        "addr:housenumber": "554", 
        "website": "http://www.dublinsquareirishpub.com", 
        "amenity": "pub", 
        "addr:city": "San Diego", 
        "addr:postcode": "92101", 
        "source": "SanGIS Addresses Public Domain (http://www.sangis.org/)", 
        "addr:country": "US", 
        "addr:street": "4th Avenue"
    }, 
    "Ciro's": {
        "amenity": "fast_food"
    }, 
    "Project Management Academy": {
        "addr:housenumber": "655", 
        "website": "https://projectmanagementacademy.net/", 
        "addr:city": "San Diego", 
        "is_in:country": "United States of America", 
        "addr:postcode": "92101", 
        "is_in:city": "San Diego", 
        "is_in:country_code": "US", 
        "is_in:state": "California", 
        "phone": "8776370450", 
        "source": "SanGIS Addresses Public Domain (http://www.sangis.org/)", 
        "addr:country": "US", 
        "addr:street": "6th Avenue"
    }, 
    "San Diego Lions Manor": {
        "building": "apartments", 
        "building:levels": "14"
    }
}