{
    "Town Hall Pub": {
        "addr:housenumber": "3340", 
        "website": "http://www.townhallpub.com/", 
        "amenity": "bar", 
        "addr:city": "Chicago", 
        "addr:postcode": "60657", 
        "addr:state": "IL", 
        "phone": "1+773-472-4405", 
        "addr:street": "North Halsted Street"
    }, 
    "Home Bistro": {
        "addr:housenumber": "3404", 
        "cuisine": "american", 
        "amenity": "restaurant", 
        "addr:city": "Chicago", 
        "addr:postcode": "60657", 
        "addr:state": "IL", 
        "website": "http://homebistrochicago.com/", 
        "phone": "+1-773-661-0299", 
        "addr:street": "North Halsted Street"
    }, 
    "Halsted St & Roscoe St": {
        "operator": "Divvy", 
        "amenity": "bicycle_rental", 
        "capacity": "15", 
        "divvy:id": "299"
    }, 
    "Wood": {
        "addr:housenumber": "3335", 
        "website": "http://woodchicago.com/", 
        "amenity": "restaurant", 
        "addr:city": "Chicago", 
        "addr:postcode": "60657", 
        "addr:state": "IL", 
        "phone": "+1-773-935-9663", 
        "addr:street": "North Halsted Street"
    }, 
    "Ann Sather": {
        "addr:housenumber": "3415", 
        "website": "http://annsather.com/", 
        "amenity": "restaurant", 
        "addr:city": "Chicago", 
        "addr:postcode": "60657", 
        "addr:state": "IL", 
        "phone": "+1-773-305-0024", 
        "addr:street": "North Broadway"
    }, 
    "The Chicago Diner": {
        "addr:housenumber": "3411", 
        "website": "http://www.veggiediner.com/", 
        "amenity": "restaurant", 
        "addr:city": "Chicago", 
        "addr:postcode": "60657", 
        "addr:state": "IL", 
        "phone": "+1-773-935-6696", 
        "addr:street": "North Halsted Street"
    }, 
    "Broadway United Methodist Church": {
        "amenity": "place_of_worship", 
        "gnis:state_id": "17", 
        "gnis:county_id": "031", 
        "ele": "180", 
        "religion": "christian", 
        "gnis:created": "04/01/1999", 
        "gnis:feature_id": "1826456", 
        "denomination": "methodist"
    }, 
    "Halsted & Roscoe": {
        "operator": "Chicago Transit Authority", 
        "bus": "yes", 
        "local_ref": "5760", 
        "public_transport": "stop_position", 
        "network": "CTA"
    }, 
    "Jacquelines's": {
        "addr:housenumber": "3420", 
        "amenity": "bar", 
        "addr:city": "Chicago", 
        "addr:postcode": "60657", 
        "addr:state": "Il", 
        "phone": "+1-773-404-5149", 
        "addr:street": "North Broadway"
    }, 
    "Wendt Playlot": {
        "gnis:state_id": "17", 
        "gnis:county_id": "031", 
        "leisure": "playground", 
        "ele": "181", 
        "gnis:created": "05/03/1999", 
        "gnis:feature_id": "1837166"
    }, 
    "Best Western Plus Hawthorne Terrace": {
        "addr:housenumber": "3434", 
        "addr:street:prefix": "North", 
        "addr:street:name": "Broadway", 
        "addr:city": "Chicago", 
        "building:levels": "3", 
        "addr:postcode": "60657", 
        "building": "yes", 
        "addr:state": "IL", 
        "website": "http://www.hawthorneterrace.com/", 
        "phone": "7732443434", 
        "chicago:building_id": "189495", 
        "operator": "Best Western", 
        "tourism": "hotel", 
        "addr:street": "N Broadway St"
    }, 
    "Beatnix": {
        "shop": "gift"
    }, 
    "Yefseis Cafe": {
        "addr:housenumber": "3344", 
        "website": "https://yefseis-cafe.business.site/", 
        "amenity": "cafe", 
        "addr:city": "Chicago", 
        "addr:postcode": "60657", 
        "addr:state": "IL", 
        "phone": "+1-773-857-3002", 
        "addr:street": "North Halsted Street"
    }, 
    "XO": {
        "shop": "beauty"
    }, 
    "Roscoe's Tavern & Cafe": {
        "amenity": "bar"
    }, 
    "Nookie's": {
        "amenity": "restaurant"
    }, 
    "Boystown": {
        "place": "quarter"
    }, 
    "Pets First": {
        "amenity": "veterinary"
    }, 
    "7-Eleven": {
        "shop": "convenience"
    }, 
    "Broadway & Roscoe SB": {
        "shelter": "no", 
        "operator": "Chicago Transit Authority", 
        "local_ref": "5363", 
        "highway": "bus_stop", 
        "bench": "yes"
    }, 
    "Rolled Around Bakery - Corporate": {
        "addr:housenumber": "710", 
        "shop": "bakery", 
        "addr:city": "Chicago", 
        "addr:postcode": "60657", 
        "addr:state": "IL", 
        "website": "http://www.rolledaround.com/", 
        "phone": "+1-312-985-7653", 
        "addr:street": "West Roscoe Street"
    }, 
    "Cocktail": {
        "amenity": "bar"
    }, 
    "Minibar": {
        "amenity": "bar"
    }, 
    "Sidetrack": {
        "addr:housenumber": "3349", 
        "website": "https://www.sidetrackchicago.com/", 
        "amenity": "bar", 
        "addr:city": "Chicago", 
        "addr:postcode": "60657", 
        "addr:state": "IL", 
        "phone": "+1-773-477-9189", 
        "addr:street": "North Halsted Street"
    }, 
    "Shiawase Japanese Restaurant": {
        "amenity": "restaurant"
    }, 
    "El Mariache Restaurant": {
        "amenity": "restaurant"
    }
}