{
    "CPCC Overcash": {
        "building": "yes"
    }, 
    "CPCC Health Careers": {
        "building": "yes"
    }, 
    "CPCC Central High": {
        "building": "yes"
    }, 
    "Central Piedmont Community College": {
        "amenity": "college"
    }, 
    "CPCC Overcash - Arts Wing": {
        "building": "yes"
    }, 
    "CPCC Pease Auditorium": {
        "building": "yes", 
        "amenity": "theatre"
    }, 
    "Little Sugar Creek": {
        "tunnel": "culvert", 
        "source": "NHD", 
        "layer": "-1", 
        "waterway": "river"
    }, 
    "CPCC Tate Tower": {
        "historic": "monument"
    }, 
    "Independence Park": {
        "addr:housenumber": "300", 
        "website": "https://www.mecknc.gov/parkandrec/parks/parksbyregion/centralregion/pages/independencepark.aspx", 
        "gnis:state_id": "37", 
        "addr:city": "Charlotte", 
        "addr:postcode": "28204", 
        "wikipedia": "en:Independence Park (Charlotte, North Carolina)", 
        "gnis:county_id": "119", 
        "addr:state": "NC", 
        "wikidata": "Q6016144", 
        "leisure": "park", 
        "ownership": "county", 
        "gnis:created": "06/17/1980", 
        "gnis:feature_id": "987331", 
        "addr:street": "Hawthorne Lane"
    }, 
    "CPCC Library": {
        "building": "yes"
    }, 
    "Gloria Victus Monument": {
        "historic": "memorial"
    }, 
    "100kV Transmission Line": {
        "operator": "Duke", 
        "voltage": "100000", 
        "power": "line"
    }, 
    "CPCC Terrell": {
        "building": "yes"
    }, 
    "Aspire": {
        "historic": "monument"
    }, 
    "CPCC Sloan-Morgan": {
        "building": "yes"
    }, 
    "CPCC": {
        "tram": "yes", 
        "railway": "tram_stop", 
        "public_transport": "stop_position"
    }, 
    "CPCC Zeiss": {
        "building": "yes"
    }, 
    "CPCC Advanced Technology Center": {
        "building": "yes"
    }, 
    "CPCC Faculty/Theatre Parking": {
        "park_ride": "no", 
        "amenity": "parking", 
        "supervised": "yes", 
        "surface": "paved", 
        "parking": "multi-storey"
    }, 
    "CPCC Kratt": {
        "building": "yes", 
        "note": "Building demolition started June 2017, new building construction to start in the Fall of 2017.", 
        "demolished:building": "yes"
    }, 
    "Halton Theatre": {
        "building": "yes", 
        "operator": "CPCC", 
        "amenity": "theatre"
    }, 
    "CPCC Citizens Center": {
        "building": "yes"
    }, 
    "CPCC Worrell": {
        "building": "yes"
    }, 
    "CPCC Giles Science Center": {
        "building": "yes"
    }
}