{
    "PNC Bank": {
        "brand:wikidata": "Q38928", 
        "amenity": "bank", 
        "brand": "PNC Bank", 
        "brand:wikipedia": "en:PNC Financial Services"
    }, 
    "Fountain Square": {
        "addr:county": "Indiana Pacers Bikeshare", 
        "amenity": "bicycle_rental", 
        "capacity": "13", 
        "network": "Indiana Pacers Bikeshare", 
        "area": "yes"
    }, 
    "Smokehouse On Shelby": {
        "addr:housenumber": "1103", 
        "website": "http://www.fountainsquareindy.com/smokehouse/index.asp", 
        "amenity": "restaurant", 
        "addr:city": "Indianapolis", 
        "addr:postcode": "46203", 
        "phone": "+1 317 685 1959", 
        "smoking": "no", 
        "addr:street": "Shelby Street"
    }, 
    "Pure": {
        "addr:housenumber": "1043", 
        "cuisine": "sandwich", 
        "amenity": "restaurant", 
        "addr:city": "Indianapolis", 
        "addr:postcode": "46203", 
        "website": "http://pureeatery.com/", 
        "phone": "+1 317 602 5724", 
        "smoking": "no", 
        "addr:street": "Virginia Avenue"
    }, 
    "Hero House Comics": {
        "shop": "books"
    }, 
    "Mama Irma": {
        "addr:housenumber": "1058", 
        "cuisine": "peruvian", 
        "amenity": "restaurant", 
        "addr:city": "Indianapolis", 
        "addr:postcode": "46203", 
        "outdoor_seating": "no", 
        "addr:state": "IN", 
        "website": "http://www.mamairma.com/", 
        "phone": "+1-317-423-2421", 
        "opening_hours": "Tu-Sa 11:00-21:00", 
        "smoking": "no", 
        "addr:street": "Virginia Avenue"
    }, 
    "El Arado": {
        "addr:housenumber": "1065", 
        "cuisine": "mexican", 
        "amenity": "restaurant", 
        "addr:city": "Indianapolis", 
        "addr:postcode": "46203", 
        "phone": "+1 317 632 2076", 
        "smoking": "no", 
        "addr:street": "Virginia Avenue"
    }, 
    "Fountain Square Branch Indianapolis-Marion County Public Library": {
        "addr:housenumber": "1066", 
        "amenity": "library", 
        "addr:city": "Indianapolis", 
        "gnis:reviewed": "no", 
        "addr:postcode": "46203", 
        "addr:street": "Virginia Avenue", 
        "addr:state": "IN", 
        "ele": "223", 
        "phone": "+1-317-275-4390", 
        "source": "USGS Geonames", 
        "gnis:import_uuid": "57871b70-0100-4405-bb30-88b2e001a944", 
        "gnis:feature_id": "2094783", 
        "internet_access": "wlan", 
        "gnis:county_name": "Marion"
    }, 
    "La Margarita Fountain Square": {
        "addr:housenumber": "1043", 
        "cuisine": "mexican", 
        "amenity": "restaurant", 
        "addr:city": "Indianapolis", 
        "addr:postcode": "46203", 
        "website": "https://lamargaritaindy.wordpress.com/", 
        "phone": "+1 317 384 1457", 
        "smoking": "no", 
        "addr:street": "Virginia Avenue"
    }, 
    "PNC Bank Drive-Thru": {
        "building": "roof", 
        "building:levels": "1"
    }
}