{
    "Village Center Newsstand": {
        "shop": "newsagent"
    }, 
    "800 Degrees": {
        "addr:housenumber": "10889", 
        "cuisine": "pizza", 
        "amenity": "fast_food", 
        "opening_hours": "Mo-Su 11:00-02:00", 
        "website": "http://www.800degreespizza.com/", 
        "addr:postcode": "90024", 
        "addr:street": "Lindbrook Drive"
    }, 
    "Iso Fusion Café": {
        "addr:housenumber": "1108", 
        "cuisine": "asian", 
        "amenity": "restaurant", 
        "addr:street": "Gayley Avenue", 
        "addr:postcode": "90024"
    }, 
    "El Pollo Loco": {
        "addr:housenumber": "1081", 
        "cuisine": "mexican", 
        "amenity": "fast_food", 
        "addr:street": "Gayley Avenue", 
        "addr:postcode": "90024"
    }, 
    "Royal Palace Hotel": {
        "tourism": "hotel"
    }, 
    "Westwood's Village Square": {
        "addr:housenumber": "1101", 
        "building": "yes", 
        "lacounty:bld_id": "426702844561", 
        "addr:postcode": "90024", 
        "lacounty:ain": "4363023029", 
        "height": "13.7", 
        "ele": "110.1", 
        "start_date": "1976", 
        "addr:street": "Westwood Boulevard"
    }, 
    "Westwood Sporting Goods": {
        "addr:housenumber": "1065", 
        "addr:postcode": "90024", 
        "shop": "sports", 
        "addr:street": "Gayley Avenue"
    }, 
    "Red Pelican Music": {
        "addr:housenumber": "10845", 
        "website": "https://www.redpelicanmusic.com/", 
        "addr:unit": "Suite 209", 
        "addr:city": "Los Angeles", 
        "phone": "(310) 893-0776", 
        "addr:postcode": "90024", 
        "addr:housename": "Suite 209", 
        "amenity": "education_centre", 
        "note": "Red Pelican Music offers the finest private music lessons in Los Angeles.", 
        "source": "www.redpelicanmusic.com", 
        "addr:street": "Lindbrook Drive"
    }, 
    "Noah's Bagels": {
        "addr:housenumber": "10910", 
        "cuisine": "bagel", 
        "amenity": "fast_food", 
        "addr:street": "Lindbrook Drive", 
        "addr:postcode": "90024"
    }, 
    "Helen's Cycles": {
        "addr:housenumber": "1071", 
        "shop": "bicycle", 
        "opening_hours": "Mo-Fr 10:00-19:00; Sa 9:00-18:00; Su 11:00-17:00", 
        "website": "https://www.helenscycles.com/", 
        "phone": "+1-310-208-8988", 
        "addr:postcode": "90024", 
        "addr:street": "Gayley Avenue"
    }, 
    "Plaza la Reina": {
        "building": "yes", 
        "tourism": "hotel"
    }, 
    "Kaplan": {
        "addr:housenumber": "1133", 
        "addr:postcode": "90024", 
        "amenity": "education_centre", 
        "addr:street": "Westwood Boulevard", 
        "level": "1"
    }, 
    "UCLA Extension - Westwood Village Center": {
        "addr:housenumber": "1083", 
        "building:colour": "white", 
        "building": "college", 
        "lacounty:bld_id": "426283844719;426244844721;426226844709", 
        "building:levels": "4", 
        "addr:postcode": "90024", 
        "lacounty:ain": "4363025002;4363025003;4363025003", 
        "ele": "116.3", 
        "height": "19.3", 
        "start_date": "1970", 
        "addr:street": "Gayley Avenue"
    }, 
    "Yogurtland": {
        "addr:housenumber": "10911", 
        "cuisine": "frozen_yogurt", 
        "amenity": "ice_cream", 
        "addr:postcode": "90024", 
        "brand": "Yogurtland", 
        "brand:wikidata": "Q8054428", 
        "takeaway": "yes", 
        "addr:street": "Lindbrook Drive", 
        "brand:wikipedia": "en:Yogurtland"
    }, 
    "UCLA Extension - Lindbrook Center": {
        "addr:housenumber": "10920", 
        "building": "yes", 
        "lacounty:bld_id": "426890844245", 
        "addr:postcode": "90024", 
        "lacounty:ain": "4363023034", 
        "height": "9.8", 
        "ele": "104.0", 
        "start_date": "1979", 
        "addr:street": "Lindbrook Drive"
    }, 
    "Westwood Wilshire": {
        "highway": "bus_stop"
    }, 
    "Skylight Gardens": {
        "addr:housenumber": "1139", 
        "website": "http://www.skylightgardens.com/", 
        "amenity": "restaurant", 
        "addr:street": "Glendon Avenue", 
        "addr:postcode": "90024"
    }, 
    "bibigo": {
        "cuisine": "korean", 
        "amenity": "fast_food"
    }, 
    "Native Foods": {
        "addr:housenumber": "1114", 
        "website": "https://www.nativefoods.com/", 
        "amenity": "cafe", 
        "instagram": "http://instagram.com/nativefoodscafe", 
        "addr:postcode": "90024", 
        "wheelchair": "yes", 
        "facebook": "https://www.facebook.com/NativeFoods", 
        "name:zh": "Native Foods餐厅", 
        "diet:vegan": "only", 
        "addr:street": "Gayley Avenue"
    }, 
    "Tender Greens": {
        "addr:housenumber": "1101", 
        "website": "https://www.tendergreens.com/", 
        "amenity": "restaurant", 
        "addr:street": "Glendon Avenue"
    }, 
    "Fatburger": {
        "addr:housenumber": "10955", 
        "cuisine": "burger", 
        "amenity": "fast_food", 
        "addr:street": "Kinross Avenue", 
        "addr:postcode": "90024"
    }, 
    "Headlines!": {
        "addr:housenumber": "10922", 
        "website": "http://headlinesdiner.com/", 
        "amenity": "restaurant", 
        "addr:street": "Kinross Avenue", 
        "addr:postcode": "90024"
    }, 
    "Starbucks": {
        "addr:housenumber": "1161", 
        "cuisine": "coffee_shop", 
        "amenity": "cafe", 
        "addr:postcode": "90024", 
        "brand": "Starbucks", 
        "opening_hours": "Mo-Fr 04:30-21:30; Sa 05:00-20:30; Su 05:30-20:30", 
        "phone": "+3102085505", 
        "brand:wikidata": "Q37158", 
        "takeaway": "yes", 
        "addr:street": "Westwood Boulevard", 
        "brand:wikipedia": "en:Starbucks"
    }, 
    "SanSai Japanese Grill": {
        "addr:housenumber": "10904", 
        "cuisine": "japanese", 
        "amenity": "fast_food", 
        "addr:street": "Lindbrook Drive", 
        "addr:postcode": "90024"
    }, 
    "Poke Bar": {
        "addr:housenumber": "1135", 
        "addr:postcode": "90024", 
        "amenity": "cafe", 
        "opening_hours": "Mo-Su 11:30-21:00"
    }, 
    "Gayley & Lindbrook Apartments": {
        "addr:housenumber": "1122", 
        "building": "yes", 
        "addr:city": "Los Angeles", 
        "addr:postcode": "90024", 
        "addr:state": "CA", 
        "addr:street": "Gayley Avenue"
    }, 
    "Denny's": {
        "addr:housenumber": "1060", 
        "addr:postcode": "90024", 
        "amenity": "restaurant", 
        "addr:street": "Tiverton Avenue"
    }, 
    "Occidental Petroleum Heliport": {
        "accuracy": "estimate", 
        "access": "private", 
        "faa": "44CN", 
        "phone": "+1 213 443 6028", 
        "gnis:county_name": "Los Angeles", 
        "FAA:LFSN": "01817.3*H", 
        "gnis:feature_type": "Airport", 
        "closest_town": "Los Angeles, California", 
        "variation": "14 E 1985", 
        "ele": "509 ft", 
        "source:date": "2011-10-20", 
        "source": "FAA;bing_imagery_0.06m_200801", 
        "aeroway": "helipad", 
        "addr:state": "CA", 
        "operator": "Oxy Westwood Corp", 
        "gnis:created": "03/01/1994", 
        "gnis:feature_id": "1653670", 
        "note:accuracy": "Moved to likely position according to imagery", 
        "ref": "44CN", 
        "source_ref": "geonames.usgs.gov"
    }, 
    "Ike's Place": {
        "addr:housenumber": "1151", 
        "cuisine": "sandwich", 
        "amenity": "fast_food", 
        "drive_through": "no", 
        "addr:city": "Los Angeles", 
        "addr:postcode": "90024", 
        "opening_hours": "Su-Th 11:00-21:00; Fr,Sa 11:00-22:00", 
        "addr:state": "CA", 
        "takeaway": "yes", 
        "addr:street": "Westwood Boulevard"
    }, 
    "Parking 36": {
        "operator": "UCLA", 
        "amenity": "parking", 
        "fee": "yes", 
        "parking": "surface"
    }, 
    "Kinross Building North": {
        "addr:housenumber": "11000", 
        "building": "yes", 
        "lacounty:bld_id": "426338844276", 
        "building:levels": "3", 
        "addr:postcode": "90024", 
        "ele": "111.3", 
        "height": "15.2", 
        "lacounty:ain": "4363026905", 
        "addr:street": "Kinross Avenue"
    }, 
    "Westwood / Lindbrook": {
        "highway": "bus_stop"
    }, 
    "Parking 32": {
        "building": "yes", 
        "amenity": "parking", 
        "fee": "yes", 
        "lacounty:bld_id": "426070844589", 
        "height": "10.9", 
        "parking": "multi-storey", 
        "operator": "UCLA", 
        "ele": "108.7", 
        "lacounty:ain": "4363026905"
    }, 
    "Verizon Wireless": {
        "shop": "mobile_phone", 
        "brand": "Verizon Wireless", 
        "brand:wikidata": "Q919641", 
        "brand:wikipedia": "en:Verizon Wireless"
    }, 
    "Novel Cafe Westwood": {
        "addr:housenumber": "1101", 
        "website": "http://www.novelcafegayleyave.com/", 
        "amenity": "cafe", 
        "opening_hours": "Mo-Su 16:00-22:00", 
        "wheelchair": "yes", 
        "addr:postcode": "90024", 
        "addr:street": "Gayley Avenue"
    }, 
    "Stone Canyon Creek (underground)": {
        "tunnel": "yes", 
        "layer": "-1", 
        "waterway": "river"
    }, 
    "Flax Pen to Paper": {
        "addr:housenumber": "1078", 
        "shop": "stationery", 
        "fax": "+1-310-208-6317", 
        "addr:city": "Los Angeles", 
        "payment:debit_cards": "yes", 
        "addr:postcode": "90024", 
        "addr:state": "CA", 
        "payment:credit_cards": "yes", 
        "website": "https://www.flaxpentopaper.com/", 
        "phone": "+1-310-208-3529", 
        "payment:apple_pay": "yes", 
        "opening_hours": "Tu-Fr 10:00-19:00; Sa 10:00-5:30", 
        "email": "info@flaxpentopaper.com", 
        "addr:street": "Gayley Avenue"
    }, 
    "Kinross Building South": {
        "addr:housenumber": "11020", 
        "building": "yes", 
        "lacounty:bld_id": "426483844052", 
        "addr:postcode": "90024", 
        "ele": "99.7", 
        "height": "6.1", 
        "lacounty:ain": "4363026905", 
        "addr:street": "Kinross Avenue"
    }, 
    "Lamonicas NY-Pizza": {
        "addr:housenumber": "1066", 
        "cuisine": "pizza", 
        "amenity": "fast_food", 
        "addr:postcode": "90024", 
        "wheelchair": "yes", 
        "website": "http://www.lamonicasnypizza.com", 
        "addr:street": "Gayley Avenue"
    }, 
    "Subway": {
        "addr:housenumber": "1165", 
        "cuisine": "sandwich", 
        "amenity": "fast_food", 
        "addr:street": "Westwood Boulevard", 
        "addr:postcode": "90024"
    }, 
    "London Cleaners": {
        "addr:housenumber": "1073", 
        "website": "http://www.londoncleanerslosangeles.com/", 
        "addr:street": "Gayley Avenue", 
        "shop": "dry_cleaning", 
        "addr:postcode": "90024"
    }, 
    "The Gayley Building": {
        "addr:housenumber": "1072", 
        "building": "yes", 
        "lacounty:bld_id": "426383844830", 
        "office": "yes", 
        "addr:postcode": "90024", 
        "height": "7.9", 
        "ele": "105.6", 
        "lacounty:ain": "4363024016", 
        "addr:street": "Gayley Avenue"
    }, 
    "U-Mini": {
        "addr:housenumber": "1131", 
        "cuisine": "burger", 
        "amenity": "fast_food", 
        "addr:street": "Westwood Boulevard", 
        "addr:postcode": "90024"
    }, 
    "Peet's Coffee & Tea": {
        "addr:housenumber": "1154", 
        "addr:postcode": "90024", 
        "amenity": "cafe", 
        "addr:street": "Westwood Boulevard"
    }, 
    "Nature's Way Café": {
        "addr:housenumber": "10917", 
        "cuisine": "vegetarian", 
        "amenity": "cafe", 
        "addr:postcode": "90024", 
        "wheelchair": "yes", 
        "diet:vegetarian": "only", 
        "addr:street": "Lindbrook Drive"
    }, 
    "Westwood Village": {
        "gnis:ST_alpha": "CA", 
        "gnis:County_num": "037", 
        "gnis:ST_num": "06", 
        "ele": "96", 
        "import_uuid": "bb7269ee-502a-5391-8056-e3ce0e66489c", 
        "gnis:Class": "Populated Place", 
        "place": "neighbourhood", 
        "wikidata": "Q1199774", 
        "gnis:County": "Los Angeles", 
        "gnis:id": "1661677", 
        "is_in": "Los Angeles,California,Calif.,CA,USA"
    }, 
    "Mongol BBQ": {
        "addr:housenumber": "1064", 
        "cuisine": "mongolian", 
        "amenity": "restaurant", 
        "addr:postcode": "90024", 
        "wheelchair": "yes", 
        "alt_name": "Mongols", 
        "addr:street": "Gayley Avenue"
    }, 
    "Janss Dome": {
        "building": "yes", 
        "lacounty:bld_id": "427188844530", 
        "lacounty:ain": "4363022010", 
        "wikipedia": "en:Janss Investment Company Building", 
        "height": "9.0", 
        "alt_name": "Janss Investment Company Building", 
        "ele": "105.6", 
        "start_date": "1933"
    }, 
    "Gayley Center": {
        "addr:housenumber": "1145", 
        "building": "retail", 
        "source:ele": "USGS Geonames", 
        "lacounty:bld_id": "426560844257", 
        "office": "yes", 
        "addr:postcode": "90024", 
        "lacounty:ain": "4363023033", 
        "ele": "110.4", 
        "gnis:feature_id": "1657715", 
        "height": "15.8", 
        "start_date": "1979", 
        "addr:street": "Gayley Avenue"
    }, 
    "Elysee": {
        "addr:housenumber": "1099", 
        "website": "http://www.elyseebakery.com/", 
        "amenity": "cafe", 
        "addr:street": "Gayley Avenue", 
        "addr:postcode": "90024"
    }, 
    "Westwood Flower Garden": {
        "addr:housenumber": "1091", 
        "website": "http://www.westwoodflowergarden.com/", 
        "addr:street": "Gayley Avenue", 
        "shop": "florist", 
        "addr:postcode": "90024"
    }, 
    "UTLA Beauty": {
        "addr:housenumber": "10925", 
        "building": "yes", 
        "lacounty:bld_id": "426435844730", 
        "addr:postcode": "90024", 
        "lacounty:ain": "4363024017", 
        "building:units": "1", 
        "ele": "104.8", 
        "height": "7.7", 
        "start_date": "1952", 
        "addr:street": "Gayley Avenue"
    }, 
    "Urban Outfitters": {
        "shop": "clothes"
    }, 
    "Victoria's Secret": {
        "shop": "clothes", 
        "name:en": "Victoria's Secret", 
        "brand": "Victoria's Secret", 
        "brand:wikidata": "Q332477", 
        "brand:wikipedia": "en:Victoria's Secret", 
        "clothes": "underwear;women"
    }, 
    "Hammer Museum": {
        "addr:housenumber": "10899", 
        "website": "https://hammer.ucla.edu/", 
        "addr:city": "Los Angeles", 
        "addr:postcode": "90024", 
        "wikipedia": "en:Hammer Museum", 
        "addr:state": "CA", 
        "phone": "+1-310-443-7000", 
        "wikidata": "Q677561", 
        "tourism": "museum", 
        "addr:street": "Wilshire Boulevard"
    }, 
    "Westwood Medical Plaza": {
        "addr:housenumber": "10921", 
        "addr:postcode": "90024", 
        "addr:street": "Wilshire Boulevard"
    }, 
    "Mio Babbo's": {
        "addr:housenumber": "1076", 
        "cuisine": "italian", 
        "amenity": "restaurant", 
        "addr:postcode": "90024", 
        "website": "http://www.miobabbos.com/", 
        "addr:street": "Gayley Avenue"
    }, 
    "TCT Foods": {
        "addr:housenumber": "1116", 
        "cuisine": "american", 
        "amenity": "fast_food", 
        "opening_hours": "Mo-Su 11:00-20:00;PH closed", 
        "level": "0", 
        "addr:postcode": "90024", 
        "fax": "310-443-4434", 
        "addr:state": "CA", 
        "website": "http://tltfood.com", 
        "phone": "310-443-4433", 
        "takeaway": "yes", 
        "addr:street": "Westwood Boulevard"
    }, 
    "T-Mobile": {
        "addr:housenumber": "1142", 
        "shop": "mobile_phone", 
        "addr:postcode": "90024", 
        "brand": "T-Mobile", 
        "brand:wikidata": "Q327634", 
        "brand:wikipedia": "en:T-Mobile", 
        "addr:street": "Westwood Boulevard"
    }, 
    "Veggie Grill": {
        "addr:housenumber": "10916", 
        "website": "https://www.veggiegrill.com/", 
        "amenity": "fast_food", 
        "instagram": "https://www.instagram.com/veggiegrill/", 
        "addr:postcode": "90024", 
        "diet:vegetarian": "only", 
        "facebook": "https://www.facebook.com/veggiegrill", 
        "diet:vegan": "yes", 
        "addr:street": "Lindbrook Drive"
    }
}