{
    "Fortuna Cafe": {
        "addr:housenumber": "711", 
        "cuisine": "chinese", 
        "amenity": "restaurant", 
        "addr:city": "Seattle", 
        "addr:postcode": "98104", 
        "source": "King County GIS;data.seattle.gov", 
        "addr:street": "South King Street"
    }, 
    "Cindy's Beauty Salon": {
        "addr:housenumber": "507", 
        "shop": "beauty", 
        "addr:city": "Seattle", 
        "addr:postcode": "98104", 
        "source": "King County GIS;data.seattle.gov", 
        "addr:street": "South King Street"
    }, 
    "Interim CPA": {
        "office": "company"
    }, 
    "Sing Keong Society": {
        "addr:housenumber": "512", 
        "addr:city": "Seattle", 
        "office": "association", 
        "addr:postcode": "98104", 
        "source": "King County GIS;data.seattle.gov", 
        "addr:street": "Maynard Avenue South"
    }, 
    "Northwest Kung Fu Fitness Studios": {
        "leisure": "fitness_centre"
    }, 
    "Ocean Star Seafood Restaurant": {
        "addr:housenumber": "605", 
        "cuisine": "seafood", 
        "amenity": "restaurant", 
        "addr:city": "Seattle", 
        "addr:postcode": "98104", 
        "source": "King County GIS;data.seattle.gov", 
        "name:zh": "星都", 
        "addr:street": "7th Avenue South"
    }, 
    "Maekawa Bar": {
        "note": "karaoke", 
        "amenity": "bar"
    }, 
    "Alice Hotel": {
        "building": "yes", 
        "building:levels": "6", 
        "source": "data.seattle.gov"
    }, 
    "Golden Hong Market": {
        "addr:housenumber": "518", 
        "shop": "convenience", 
        "addr:city": "Seattle", 
        "addr:postcode": "98104", 
        "source": "King County GIS;data.seattle.gov", 
        "addr:street": "7th Avenue South"
    }, 
    "663 Bistro": {
        "addr:housenumber": "663", 
        "cuisine": "chinese", 
        "amenity": "restaurant", 
        "addr:city": "Seattle", 
        "addr:postcode": "98104", 
        "website": "http://663-bistro.com", 
        "source": "King County GIS;data.seattle.gov", 
        "addr:street": "South Weller Street"
    }, 
    "Nagomi Tea House": {
        "cuisine": "tea", 
        "amenity": "cafe"
    }, 
    "Great State Burger - Chinatown": {
        "addr:housenumber": "504", 
        "cuisine": "burger", 
        "amenity": "fast_food", 
        "name:en": "Great State Burger", 
        "opening_hours": "Mo-Fr 07:00-21:00; Sa 11:00-16:00", 
        "website": "https://greatstateburger.com", 
        "phone": "206-775-7110", 
        "addr:street": "5th Avenue South"
    }, 
    "CAGJ CISPES WFTC": {
        "office": "company"
    }, 
    "Seattle Pinball Museum": {
        "addr:housenumber": "508", 
        "website": "https://www.seattlepinballmuseum.com/", 
        "addr:city": "Seattle", 
        "phone": "+1 (206) 623-0759", 
        "addr:postcode": "98104", 
        "wheelchair": "yes", 
        "source": "data.seattle.gov;King County GIS;http://www.yelp.com/biz/seattle-pinball-museum-seattle", 
        "opening_hours": "Su-Mo, We-Th 12:00-18:00; Fr-Sa 12:00-20:00", 
        "tourism": "museum", 
        "addr:street": "Maynard Avenue South"
    }, 
    "Ellenos Real Greek Yogurt": {
        "amenity": "cafe", 
        "name:en": "Ellenos Real Greek Yogurt"
    }, 
    "Young House": {
        "addr:housenumber": "523", 
        "shop": "convenience", 
        "addr:city": "Seattle", 
        "addr:postcode": "98104", 
        "source": "King County GIS;data.seattle.gov", 
        "addr:street": "Maynard Avenue South"
    }, 
    "Gan Bei": {
        "addr:housenumber": "670", 
        "cuisine": "chinese", 
        "amenity": "restaurant", 
        "addr:city": "Seattle", 
        "addr:postcode": "98104", 
        "source": "King County GIS;data.seattle.gov", 
        "addr:street": "South Weller Street"
    }, 
    "Eastern Hotel": {
        "addr:housenumber": "506", 
        "building": "yes", 
        "addr:city": "Seattle", 
        "building:levels": "5", 
        "addr:postcode": "98104", 
        "source": "data.seattle.gov;King County GIS", 
        "addr:street": "Maynard Avenue South"
    }, 
    "Rex Apartments": {
        "addr:housenumber": "657", 
        "addr:postcode": "98104", 
        "addr:street": "South King Street", 
        "addr:city": "Seattle", 
        "source": "King County GIS;data.seattle.gov"
    }, 
    "The Publix Apartments": {
        "building": "apartments", 
        "building:levels": "6", 
        "note": "Construction is complete"
    }, 
    "Ambrosia": {
        "addr:housenumber": "619", 
        "amenity": "cafe", 
        "addr:city": "Seattle", 
        "addr:postcode": "98104", 
        "source": "King County GIS;data.seattle.gov", 
        "addr:street": "South King Street"
    }, 
    "Gossip": {
        "addr:housenumber": "651", 
        "cuisine": "coffee_shop", 
        "amenity": "cafe", 
        "addr:city": "Seattle", 
        "addr:postcode": "98104", 
        "source": "King County GIS;data.seattle.gov", 
        "addr:street": "South King Street"
    }, 
    "New Central Building": {
        "building": "yes", 
        "building:levels": "3", 
        "source": "data.seattle.gov"
    }, 
    "Hair To You": {
        "addr:housenumber": "513", 
        "shop": "hairdresser", 
        "addr:city": "Seattle", 
        "addr:postcode": "98104", 
        "source": "King County GIS;data.seattle.gov", 
        "addr:street": "7th Avenue South"
    }, 
    "Chong Wa Benevolent Association": {
        "addr:housenumber": "522", 
        "building": "yes", 
        "addr:city": "Seattle", 
        "office": "association", 
        "addr:postcode": "98104", 
        "source": "King County GIS;data.seattle.gov", 
        "name:zh": "中華會館", 
        "addr:street": "7th Avenue South"
    }, 
    "Amasia Acupuncture Massage Herbs Center": {
        "addr:housenumber": "621", 
        "shop": "massage", 
        "addr:city": "Seattle", 
        "addr:postcode": "98104", 
        "source": "King County GIS;data.seattle.gov", 
        "addr:street": "South Weller Street"
    }, 
    "U2 Mobile": {
        "shop": "mobile_phone"
    }, 
    "Boiling Point": {
        "addr:housenumber": "610", 
        "cuisine": "asian", 
        "amenity": "restaurant", 
        "level": "0", 
        "opening_hours": "11:00-23:00", 
        "indoor": "room", 
        "website": "https://www.bpgroupusa.com/", 
        "phone": "+1 206-737-8506", 
        "takeaway": "yes", 
        "name:zh": "沸點", 
        "addr:street": "5th Avenue South"
    }, 
    "Realhome Network": {
        "addr:housenumber": "672", 
        "addr:city": "Seattle", 
        "office": "estate_agent", 
        "addr:postcode": "98104", 
        "source": "King County GIS;data.seattle.gov", 
        "addr:street": "South Weller Street"
    }, 
    "Pacific Herb & Grocery": {
        "addr:housenumber": "610", 
        "shop": "convenience", 
        "addr:city": "Seattle", 
        "addr:postcode": "98104", 
        "source": "King County GIS;data.seattle.gov", 
        "addr:street": "South Weller Street"
    }, 
    "King's Barbecue House": {
        "addr:housenumber": "518", 
        "cuisine": "asian", 
        "amenity": "fast_food", 
        "addr:city": "Seattle", 
        "addr:postcode": "98104", 
        "source": "King County GIS;data.seattle.gov", 
        "name:zh": "皇上皇燒臘", 
        "addr:street": "6th Avenue South"
    }, 
    "Pink Gorilla Import & Retro Gaming": {
        "shop": "toys"
    }, 
    "Eastern Cafe": {
        "addr:housenumber": "510", 
        "amenity": "cafe", 
        "addr:street": "Maynard Avenue South", 
        "internet_access": "wlan"
    }, 
    "Ironsteak": {
        "addr:housenumber": "628", 
        "amenity": "restaurant", 
        "addr:city": "Seattle", 
        "addr:postcode": "98104", 
        "source": "King County GIS;data.seattle.gov", 
        "addr:street": "South Weller Street"
    }, 
    "Chase ATM": {
        "amenity": "atm", 
        "level": "0"
    }, 
    "Paris Skin Care": {
        "shop": "beauty"
    }, 
    "Bush Garden": {
        "addr:housenumber": "614", 
        "cuisine": "asian", 
        "amenity": "restaurant", 
        "addr:city": "Seattle", 
        "addr:postcode": "98104", 
        "source": "King County GIS;data.seattle.gov", 
        "addr:street": "Maynard Avenue South"
    }, 
    "St. Paul's Medical Clinic": {
        "amenity": "clinic", 
        "healthcare": "clinic"
    }, 
    "International House": {
        "addr:housenumber": "607", 
        "amenity": "social_facility", 
        "addr:city": "Seattle", 
        "addr:postcode": "98104", 
        "social_facility": "assisted_living", 
        "source": "King County GIS;data.seattle.gov", 
        "addr:street": "Maynard Avenue South"
    }, 
    "Samurai Noodle": {
        "addr:housenumber": "606", 
        "cuisine": "japanese", 
        "amenity": "restaurant", 
        "addr:city": "Seattle", 
        "level": "0", 
        "addr:postcode": "98104", 
        "indoor": "room", 
        "website": "http://samurainoodle.com", 
        "source": "King County GIS;data.seattle.gov", 
        "addr:street": "5th Avenue South"
    }, 
    "Dochi": {
        "addr:housenumber": "604", 
        "cuisine": "donut", 
        "amenity": "cafe"
    }, 
    "Hong Kong Apartments": {
        "addr:housename": "Hong Kong Apartments", 
        "addr:city": "Seattle", 
        "addr:street": "Maynard Avenue South"
    }, 
    "Saigon Bistro": {
        "addr:housenumber": "507", 
        "cuisine": "vietnamese", 
        "amenity": "restaurant", 
        "addr:city": "Seattle", 
        "level": "0", 
        "addr:postcode": "98104", 
        "indoor": "room", 
        "source": "King County GIS;data.seattle.gov", 
        "addr:street": "South Weller Street"
    }, 
    "Asia Condo": {
        "addr:housenumber": "668", 
        "addr:postcode": "98104", 
        "addr:street": "South Lane Street", 
        "addr:city": "Seattle", 
        "source": "King County GIS;data.seattle.gov"
    }, 
    "Apartment Lobby Entrance": {
        "entrance": "yes", 
        "level": "0"
    }, 
    "The Publix": {
        "addr:housenumber": "504", 
        "building": "apartments", 
        "addr:city": "Seattle", 
        "building:levels": "6", 
        "addr:postcode": "98104", 
        "addr:housename": "The Publix", 
        "old_name": "Publix Hotel", 
        "addr:street": "5th Avenue South"
    }, 
    "International District/Chinatown": {
        "place": "suburb"
    }, 
    "Chinatown Gate": {
        "building": "roof", 
        "artwork_type": "architecture", 
        "tourism": "artwork"
    }, 
    "King Noodle": {
        "addr:housenumber": "615", 
        "cuisine": "chinese", 
        "amenity": "restaurant", 
        "addr:city": "Seattle", 
        "addr:postcode": "98104", 
        "source": "King County GIS;data.seattle.gov", 
        "opening_hours": "Mo-Th,Su 10:00-22:00;Fr-Sa 10:00-24:00", 
        "name:zh": "雲桂香", 
        "addr:street": "South King Street"
    }, 
    "Yummy House Bakery": {
        "addr:housenumber": "515", 
        "amenity": "restaurant", 
        "addr:city": "Seattle", 
        "level": "0", 
        "addr:postcode": "98104", 
        "indoor": "room", 
        "source": "King County GIS;data.seattle.gov", 
        "addr:street": "South Weller Street"
    }, 
    "New An Dong Chinese Herb & Grocery": {
        "shop": "convenience"
    }, 
    "Chase": {
        "amenity": "bank", 
        "drive_through": "no", 
        "level": "0", 
        "brand": "Chase", 
        "indoor": "room", 
        "brand:wikidata": "Q524629", 
        "brand:wikipedia": "en:Chase Bank"
    }, 
    "TCC Printing & Imaging": {
        "addr:housenumber": "616", 
        "building": "yes", 
        "addr:city": "Seattle", 
        "shop": "copyshop", 
        "addr:postcode": "98104", 
        "website": "http://www.tccprinting.com", 
        "source": "King County GIS;data.seattle.gov", 
        "addr:street": "6th Avenue South"
    }, 
    "J Sushi": {
        "addr:housenumber": "674", 
        "cuisine": "sushi", 
        "amenity": "restaurant", 
        "addr:city": "Seattle", 
        "phone": "+1 206 2879000", 
        "addr:postcode": "98104", 
        "website": "http://jsushiseattle.com/", 
        "source": "King County GIS;data.seattle.gov", 
        "addr:street": "South Weller Street"
    }, 
    "Shilla Korean BBQ": {
        "addr:housenumber": "517", 
        "source:addr:id": "1021075", 
        "amenity": "restaurant", 
        "addr:city": "Seattle", 
        "level": "0", 
        "addr:postcode": "98104", 
        "indoor": "room", 
        "operator": "korean", 
        "addr:street": "South Weller Street"
    }, 
    "Savvy Cosmetics": {
        "shop": "beauty", 
        "indoor": "room", 
        "level": "0"
    }, 
    "Dough Zone Dumpling House": {
        "addr:housenumber": "504", 
        "cuisine": "chinese", 
        "amenity": "restaurant", 
        "addr:city": "Seattle", 
        "phone": "+1 206-285-9999", 
        "addr:postcode": "98104", 
        "opening_hours": "11:00-22:00", 
        "source": "King County GIS;data.seattle.gov", 
        "takeaway": "yes", 
        "addr:street": "5th Avenue South"
    }, 
    "Asia": {
        "building": "yes", 
        "building:levels": "7", 
        "source": "data.seattle.gov"
    }, 
    "Sew Ying Chong Co.": {
        "addr:housenumber": "725", 
        "addr:city": "Seattle", 
        "office": "company", 
        "addr:postcode": "98104", 
        "source": "King County GIS;data.seattle.gov", 
        "addr:street": "South King Street"
    }, 
    "Paris Miki Optical": {
        "shop": "optician", 
        "indoor": "room", 
        "level": "0"
    }, 
    "Wing Luke Asian Museum": {
        "addr:housenumber": "719", 
        "website": "https://www.wingluke.org/", 
        "addr:city": "Seattle", 
        "source": "King County GIS;data.seattle.gov", 
        "addr:postcode": "98104", 
        "phone": "206-623-5124", 
        "opening_hours": "Tu-Su 10:00-17:00", 
        "tourism": "museum", 
        "email": "visit@wingluke.org", 
        "addr:street": "South King Street"
    }, 
    "Instyle Hair Salon": {
        "shop": "hairdresser"
    }, 
    "Uwajimaya Village": {
        "landuse": "retail"
    }, 
    "World Wireless Station": {
        "addr:housenumber": "701", 
        "shop": "mobile_phone", 
        "addr:city": "Seattle", 
        "addr:postcode": "98104", 
        "source": "King County GIS;data.seattle.gov", 
        "addr:street": "South King Street"
    }, 
    "Ho Ho Seafood": {
        "addr:housenumber": "653", 
        "cuisine": "seafood", 
        "amenity": "restaurant", 
        "addr:city": "Seattle", 
        "addr:postcode": "98104", 
        "source": "King County GIS;data.seattle.gov", 
        "addr:street": "South Weller Street"
    }, 
    "Aloha Plates": {
        "addr:housenumber": "511", 
        "amenity": "restaurant", 
        "addr:city": "Seattle", 
        "level": "0", 
        "addr:postcode": "98104", 
        "indoor": "room", 
        "source": "King County GIS;data.seattle.gov", 
        "addr:street": "South Weller Street"
    }, 
    "Phở Hòa": {
        "addr:housenumber": "618", 
        "cuisine": "vietnamese;noodle", 
        "amenity": "restaurant", 
        "alt_name:en": "Pho Hoa", 
        "addr:city": "Seattle", 
        "alt_name:vi": "Phở Hoà", 
        "addr:postcode": "98104", 
        "brand": "Phở Hòa", 
        "source": "King County GIS;data.seattle.gov", 
        "addr:street": "South Weller Street", 
        "brand:wikidata": "Q55629932", 
        "name:vi": "Phở Hòa", 
        "brand:wikipedia": "en:Phở Hòa", 
        "alt_name": "Phở Hoà"
    }, 
    "Bun": {
        "addr:housenumber": "516", 
        "cuisine": "vietnamese", 
        "amenity": "restaurant", 
        "addr:city": "Seattle", 
        "addr:postcode": "98104", 
        "source": "King County GIS;data.seattle.gov", 
        "addr:street": "7th Avenue South"
    }, 
    "Alice's Floral Designs": {
        "addr:housenumber": "617", 
        "shop": "florist", 
        "addr:city": "Seattle", 
        "addr:postcode": "98104", 
        "source": "King County GIS;data.seattle.gov", 
        "addr:street": "South King Street"
    }, 
    "Vibrant Cities": {
        "office": "company"
    }, 
    "Beacon Plumbing": {
        "addr:housenumber": "515", 
        "website": "https://www.beaconplumbing.net/", 
        "addr:city": "Seattle", 
        "payment:cash": "yes", 
        "addr:postcode": "98104", 
        "addr:state": "WA", 
        "payment:credit_cards": "yes", 
        "payment:debit_cards": "yes", 
        "craft": "plumber", 
        "addr:street": "7th Avenue South", 
        "start_date": "1999", 
        "phone": "+1-206-452-3130"
    }, 
    "Louisa Hotel Building": {
        "building": "apartments", 
        "source": "data.seattle.gov"
    }, 
    "Donnie Chin International Children’s Park": {
        "website": "http://www.seattle.gov/parks/park_detail.asp?ID=364", 
        "leisure": "park"
    }, 
    "Bao An Tang": {
        "addr:housenumber": "705", 
        "shop": "convenience", 
        "addr:city": "Seattle", 
        "addr:postcode": "98104", 
        "source": "King County GIS;data.seattle.gov", 
        "addr:street": "South King Street"
    }, 
    "Noodle Zen": {
        "addr:housenumber": "503", 
        "cuisine": "asian", 
        "amenity": "restaurant", 
        "addr:city": "Seattle", 
        "level": "0", 
        "addr:postcode": "98104", 
        "indoor": "room", 
        "source": "King County GIS;data.seattle.gov", 
        "addr:street": "South Weller Street"
    }, 
    "Deng's Studio And Art Gallery": {
        "addr:housenumber": "515", 
        "shop": "art", 
        "addr:city": "Seattle", 
        "addr:postcode": "98104", 
        "source": "King County GIS;data.seattle.gov", 
        "addr:street": "7th Avenue South"
    }, 
    "Global Travel": {
        "addr:housenumber": "659", 
        "shop": "travel_agency", 
        "addr:city": "Seattle", 
        "addr:postcode": "98104", 
        "source": "King County GIS;data.seattle.gov", 
        "addr:street": "South Weller Street"
    }, 
    "Canton Wonton House": {
        "addr:housenumber": "608", 
        "cuisine": "chinese", 
        "amenity": "restaurant", 
        "addr:city": "Seattle", 
        "addr:postcode": "98104", 
        "source": "King County GIS;data.seattle.gov", 
        "addr:street": "South Weller Street"
    }, 
    "Harbor City": {
        "addr:housenumber": "707", 
        "cuisine": "chinese", 
        "amenity": "restaurant", 
        "addr:city": "Seattle", 
        "addr:postcode": "98104", 
        "source": "King County GIS;data.seattle.gov", 
        "opening_hours": "Mo-Su 08:30-23:00", 
        "addr:street": "South King Street"
    }, 
    "Win Law": {
        "office": "lawyer"
    }, 
    "Little Sheep Mongolian Hot Pot": {
        "addr:housenumber": "609", 
        "cuisine": "chinese", 
        "addr:unit": "A", 
        "opening_hours": "11:30-23:00", 
        "amenity": "restaurant", 
        "website": "http://www.littlesheephotpot.com", 
        "phone": "+1 206-623-6700", 
        "name:zh": "小肥羊", 
        "addr:street": "South Weller Street"
    }, 
    "Beard Papa's": {
        "addr:housenumber": "521", 
        "amenity": "fast_food", 
        "addr:city": "Seattle", 
        "level": "0", 
        "addr:postcode": "98104", 
        "indoor": "room", 
        "source": "King County GIS;data.seattle.gov", 
        "addr:street": "South Weller Street"
    }, 
    "Uwajimaya": {
        "shop": "supermarket", 
        "website": "https://www.uwajimaya.com/stores/seattle", 
        "name:ja": "宇和島屋", 
        "opening_hours": "Mo-Sa 08:00-22:00; Su 09:00-21:00", 
        "wikipedia": "en:Uwajimaya", 
        "wikidata": "Q3538218", 
        "name:zh": "宇和島屋", 
        "checked_exists:date": "2015-05-18"
    }, 
    "New Central Hotel Apartments": {
        "addr:housenumber": "657", 
        "addr:postcode": "98104", 
        "addr:street": "South Weller Street", 
        "addr:city": "Seattle", 
        "source": "King County GIS;data.seattle.gov"
    }, 
    "AA Travel": {
        "addr:housenumber": "601", 
        "shop": "travel_agency", 
        "addr:city": "Seattle", 
        "addr:postcode": "98104", 
        "source": "King County GIS;data.seattle.gov", 
        "addr:street": "South King Street"
    }, 
    "Luke's Pharmacy": {
        "addr:housenumber": "611", 
        "amenity": "pharmacy", 
        "addr:city": "Seattle", 
        "addr:postcode": "98104", 
        "source": "King County GIS;data.seattle.gov", 
        "healthcare": "pharmacy", 
        "addr:street": "Maynard Avenue South"
    }, 
    "Kinokuniya Books": {
        "addr:housenumber": "525", 
        "shop": "books", 
        "addr:city": "Seattle", 
        "level": "0", 
        "addr:postcode": "98104", 
        "indoor": "room", 
        "website": "http://www.kinokuniya.com/", 
        "source": "King County GIS;data.seattle.gov", 
        "addr:street": "South Weller Street", 
        "name:zh": "紀伊國屋書店", 
        "name:ja": "紀伊國屋書店"
    }, 
    "Magical Massage": {
        "shop": "massage"
    }, 
    "Salon Juno": {
        "addr:housenumber": "619", 
        "shop": "hairdresser", 
        "addr:city": "Seattle", 
        "level": "0", 
        "addr:postcode": "98104", 
        "indoor": "room", 
        "source": "King County GIS;data.seattle.gov", 
        "addr:street": "6th Avenue South"
    }, 
    "Baba Mama": {
        "office": "company"
    }, 
    "Duk Li Dim Sum": {
        "addr:housenumber": "664", 
        "amenity": "restaurant", 
        "addr:city": "Seattle", 
        "addr:postcode": "98104", 
        "source": "King County GIS;data.seattle.gov", 
        "name:zh": "得利點心", 
        "addr:street": "South Weller Street"
    }, 
    "Tai Tung Restaurant": {
        "addr:housenumber": "655", 
        "cuisine": "chinese", 
        "amenity": "restaurant", 
        "addr:city": "Seattle", 
        "addr:postcode": "98104", 
        "source": "King County GIS;data.seattle.gov", 
        "name:zh": "大同飯店", 
        "addr:street": "South King Street"
    }, 
    "Psychic": {
        "shop": "yes"
    }, 
    "SCIDpda": {
        "office": "company"
    }, 
    "Seattle Gospel Center": {
        "amenity": "place_of_worship"
    }, 
    "Ton Kiang BBQ Noodle House": {
        "addr:housenumber": "668", 
        "amenity": "restaurant", 
        "addr:city": "Seattle", 
        "addr:postcode": "98104", 
        "source": "King County GIS;data.seattle.gov", 
        "name:zh": "東江", 
        "addr:street": "South Weller Street"
    }, 
    "Young Tea": {
        "addr:housenumber": "609", 
        "cuisine": "tea", 
        "addr:unit": "B", 
        "addr:city": "Seattle", 
        "addr:postcode": "98104", 
        "amenity": "cafe", 
        "source": "King County GIS;data.seattle.gov", 
        "opening_hours": "Mo-Su 11:00-21:30", 
        "addr:street": "South Weller Street", 
        "internet_access": "wlan"
    }, 
    "Tuesday Scarves": {
        "addr:housenumber": "608", 
        "shop": "scarves", 
        "addr:city": "Seattle", 
        "addr:postcode": "98104", 
        "source": "King County GIS;data.seattle.gov", 
        "addr:street": "Maynard Avenue South"
    }, 
    "Hood Famous Cafe and Bar": {
        "cuisine": "filipino", 
        "amenity": "cafe"
    }, 
    "EastWest Bank": {
        "website": "https://www.eastwestbank.com/", 
        "amenity": "bank", 
        "brand": "EastWest Bank", 
        "brand:wikidata": "Q5327595", 
        "name:zh": "華美銀行", 
        "brand:wikipedia": "en:EastWest Bank"
    }, 
    "Merchants Parking": {
        "amenity": "parking", 
        "parking": "surface"
    }, 
    "Cake House": {
        "addr:housenumber": "620", 
        "shop": "bakery", 
        "addr:city": "Seattle", 
        "addr:postcode": "98104", 
        "source": "King County GIS;data.seattle.gov", 
        "addr:street": "South Weller Street"
    }, 
    "Cheese Meats Bread": {
        "amenity": "fast_food", 
        "name:en": "Cheese Meats Bread"
    }, 
    "Shanghai Garden Restaurant": {
        "addr:housenumber": "524", 
        "cuisine": "chinese", 
        "amenity": "restaurant", 
        "addr:city": "Seattle", 
        "addr:postcode": "98104", 
        "source": "King County GIS;data.seattle.gov", 
        "name:zh": "滬江春", 
        "addr:street": "6th Avenue South"
    }, 
    "Honey Court Seafood Restaurant": {
        "addr:housenumber": "516", 
        "cuisine": "seafood", 
        "amenity": "restaurant", 
        "addr:city": "Seattle", 
        "addr:postcode": "98104", 
        "source": "King County GIS;data.seattle.gov", 
        "addr:street": "Maynard Avenue South"
    }, 
    "Kenneth Hong, MD": {
        "addr:housenumber": "623", 
        "amenity": "doctors", 
        "addr:city": "Seattle", 
        "addr:postcode": "98104", 
        "source": "King County GIS;data.seattle.gov", 
        "healthcare": "doctor", 
        "name:zh": "西醫湯俊傑醫務所", 
        "addr:street": "South Weller Street"
    }, 
    "AI Video": {
        "shop": "electronics"
    }, 
    "Jade Holiday Travel": {
        "addr:housenumber": "623", 
        "shop": "travel_agency", 
        "addr:city": "Seattle", 
        "addr:postcode": "98104", 
        "source": "King County GIS;data.seattle.gov", 
        "addr:street": "South King Street"
    }, 
    "Thai Place": {
        "addr:housenumber": "503", 
        "cuisine": "thai", 
        "amenity": "restaurant", 
        "addr:city": "Seattle", 
        "level": "0", 
        "addr:postcode": "98104", 
        "indoor": "room", 
        "phone": "+1 425-260-4464", 
        "source": "King County GIS;data.seattle.gov", 
        "addr:street": "South Weller Street"
    }, 
    "Seoul Tofu House & Korean BBQ": {
        "addr:housenumber": "516", 
        "cuisine": "korean", 
        "amenity": "restaurant", 
        "addr:city": "Seattle", 
        "addr:postcode": "98104", 
        "source": "King County GIS;data.seattle.gov", 
        "addr:street": "6th Avenue South"
    }, 
    "H.I.S. International Tours": {
        "addr:housenumber": "610", 
        "shop": "travel_agency", 
        "addr:city": "Seattle", 
        "addr:postcode": "98104", 
        "source": "King County GIS;data.seattle.gov", 
        "addr:street": "Maynard Avenue South"
    }, 
    "Hong Kong Bistro": {
        "addr:housenumber": "511", 
        "cuisine": "chinese", 
        "addr:unit": "C", 
        "addr:city": "Seattle", 
        "addr:postcode": "98104", 
        "amenity": "restaurant", 
        "source": "King County GIS;data.seattle.gov", 
        "addr:street": "Maynard Avenue South"
    }, 
    "Sand Dragon": {
        "addr:housenumber": "700", 
        "artwork_type": "sculpture", 
        "addr:city": "Seattle", 
        "addr:postcode": "98104", 
        "addr:street": "South Lane Street", 
        "measurements": "6'6x12", 
        "artist_name": "George Tsutakawa", 
        "project": "INTERNATIONAL CHILDREN'S PARK", 
        "location": "International Children's Park", 
        "media": "Silicon bronze, stainless steel", 
        "date": "1980", 
        "sac_id": "PR81.067 (NON-SAC)", 
        "tourism": "artwork", 
        "description": "A dragon made almost entirely of light silicon bronze; undulating form culminates with contrasting brightness of stainless steel eyes, edges are rounded and sculpture is filled with sand to absorb heat from metal on hot days."
    }, 
    "Alps Hotel": {
        "addr:housenumber": "621", 
        "addr:postcode": "98104", 
        "addr:street": "South King Street", 
        "addr:city": "Seattle", 
        "source": "King County GIS;data.seattle.gov"
    }, 
    "Girls Rock Math": {
        "amenity": "school"
    }, 
    "Purple Dot Cafe": {
        "addr:housenumber": "515", 
        "cuisine": "chinese", 
        "amenity": "restaurant", 
        "addr:city": "Seattle", 
        "phone": "+1 206-622-0288", 
        "addr:postcode": "98104", 
        "source": "King County GIS;data.seattle.gov", 
        "opening_hours": "Su-Th 09:00-01:00; Fr-Sa 09:00-03:00", 
        "addr:street": "Maynard Avenue South"
    }, 
    "goPoké": {
        "addr:housenumber": "625", 
        "cuisine": "asian", 
        "amenity": "restaurant", 
        "addr:city": "Seattle", 
        "addr:postcode": "98104", 
        "website": "http://www.gopokeseattle.com", 
        "phone": "+1-206-7999560", 
        "addr:street": "South King Street"
    }, 
    "Oasis Tea House": {
        "addr:housenumber": "519", 
        "cuisine": "tea", 
        "amenity": "fast_food", 
        "addr:city": "Seattle", 
        "addr:postcode": "98104", 
        "source": "King County GIS;data.seattle.gov", 
        "addr:street": "6th Avenue South"
    }, 
    "H Bistro": {
        "addr:housenumber": "606", 
        "cuisine": "chinese;cantonese", 
        "amenity": "restaurant", 
        "addr:city": "Seattle", 
        "addr:postcode": "98104", 
        "source": "King County GIS;data.seattle.gov", 
        "addr:street": "South Weller Street"
    }
}