{
    "COS": {
        "addr:housenumber": "505", 
        "shop": "clothes", 
        "addr:postcode": "10017", 
        "brand": "COS", 
        "website": "https://www.cosstores.com/", 
        "phone": "+1 212-271-9999", 
        "addr:street": "5th Avenue", 
        "brand:wikidata": "Q60772401", 
        "branch": "5th Avenue", 
        "opening_hours": "Mo-Sa 10:00-21:00; Su 11:00-20:00", 
        "brand:wikipedia": "en:COS (clothing)", 
        "clothes": "women;men"
    }, 
    "Chabad of Midtown Manhattan": {
        "religion": "jewish", 
        "amenity": "place_of_worship"
    }, 
    "Sayki": {
        "addr:housenumber": "340", 
        "shop": "clothes", 
        "addr:city": "New York", 
        "addr:postcode": "10017", 
        "addr:state": "NY", 
        "website": "https://sayki.com/", 
        "phone": "+1-212-661-7600", 
        "payment:options": "MasterCard, Amex, Cash, Visa, Discover", 
        "operator": "Tunch Hepguler", 
        "addr:street": "Madison Avenue"
    }, 
    "sathya sai": {
        "amenity": "place_of_worship"
    }, 
    "Wendell L. Willkie": {
        "memorial": "plaque", 
        "historic": "memorial"
    }, 
    "335 Madison Avenue": {
        "addr:housenumber": "335", 
        "building": "yes", 
        "addr:city": "New York", 
        "addr:postcode": "10017", 
        "addr:state": "NY", 
        "nycdoitt:bin": "1035360", 
        "addr:street": "Madison Avenue"
    }, 
    "Salmon Tower": {
        "addr:housenumber": "11", 
        "building": "commercial", 
        "addr:city": "New York", 
        "addr:postcode": "10036", 
        "wikipedia": "en:Salmon Tower Building", 
        "wikidata": "Q7405547", 
        "nycdoitt:bin": "1034198", 
        "start_date": "1927", 
        "addr:street": "West 42nd Street"
    }, 
    "Bakers": {
        "shop": "shoes"
    }, 
    "5th Avenue": {
        "network": "NYC Subway", 
        "opening_hours": "24/7", 
        "train": "yes", 
        "wikipedia": "en:42nd Street–Bryant Park/Fifth Avenue (New York City Subway))", 
        "station": "subway", 
        "wikidata": "Q2982388", 
        "public_transport": "station", 
        "operator": "New York City Transit Authority", 
        "railway": "station", 
        "wheelchair": "no", 
        "subway": "yes"
    }, 
    "Bryant Park": {
        "website": "http://www.bryantpark.org", 
        "gnis:state_id": "36", 
        "addr:city": "New York", 
        "name:ko": "브라이언트 공원", 
        "addr:postcode": "10018", 
        "wheelchair": "yes", 
        "addr:full": "Between 40th and 42nd Streets at 6th Avenue", 
        "wikipedia": "en:Bryant Park", 
        "gnis:county_id": "061", 
        "addr:state": "NY", 
        "ele": "20", 
        "wikidata": "Q995174", 
        "leisure": "park", 
        "opening_hours": "Mo-Su 07:00-23:00", 
        "gnis:created": "01/17/2006", 
        "gnis:feature_id": "2083160", 
        "tourism": "attraction", 
        "name:ja": "ブライアントパーク"
    }, 
    "Sean John": {
        "addr:housenumber": "51", 
        "website": "http://seanjohn.com", 
        "addr:street": "East 42nd Street", 
        "shop": "clothes", 
        "addr:postcode": "10017"
    }, 
    "Chipotle": {
        "cuisine": "mexican", 
        "amenity": "fast_food", 
        "toilets": "yes", 
        "brand": "Chipotle", 
        "outdoor_seating": "no", 
        "official_name": "Chipotle Mexican Grill", 
        "toilets:access": "customers", 
        "brand:wikidata": "Q465751", 
        "takeaway": "yes", 
        "wheelchair": "yes", 
        "brand:wikipedia": "en:Chipotle Mexican Grill"
    }, 
    "Pret A Manger": {
        "cuisine": "sandwich", 
        "amenity": "fast_food", 
        "brand": "Pret A Manger", 
        "brand:wikidata": "Q2109109", 
        "takeaway": "yes", 
        "brand:wikipedia": "en:Pret a Manger"
    }, 
    "Wine & Spirits": {
        "addr:housenumber": "4", 
        "shop": "alcohol", 
        "addr:street": "West 43rd Street"
    }, 
    "Sperry & Hutchinson Building": {
        "building": "commercial", 
        "start_date": "1962"
    }, 
    "IDB Bank": {
        "amenity": "bank"
    }, 
    "VPC Tower": {
        "addr:housenumber": "4", 
        "building:colour": "#AFACA1", 
        "building": "yes", 
        "building:levels": "7", 
        "addr:postcode": "10017", 
        "roof:material": "concrete", 
        "height": "25.5", 
        "addr:city": "New York", 
        "roof:shape": "flat", 
        "building:material": "stone", 
        "nycdoitt:bin": "1088173", 
        "start_date": "1924", 
        "addr:street": "East 43rd Street"
    }, 
    "Gertrude Stein": {
        "wikidata": "Q188385", 
        "historic": "memorial", 
        "wikipedia": "en:Gertrude Stein"
    }, 
    "The Bryant": {
        "addr:housenumber": "16", 
        "building": "yes", 
        "addr:city": "New York", 
        "addr:postcode": "10018", 
        "landuse": "construction", 
        "addr:street": "West 40th Street"
    }, 
    "William Earle Dodge": {
        "wikidata": "Q1792980", 
        "historic": "memorial", 
        "wikipedia": "en:William E. Dodge"
    }, 
    "Bank of America": {
        "brand:wikidata": "Q487907", 
        "amenity": "bank", 
        "brand": "Bank of America", 
        "brand:wikipedia": "en:Bank of America"
    }, 
    "McDonald's": {
        "cuisine": "burger", 
        "amenity": "fast_food", 
        "brand": "McDonald's", 
        "brand:wikidata": "Q38076", 
        "takeaway": "yes", 
        "brand:wikipedia": "en:McDonald's"
    }, 
    "500 Fifth Avenue": {
        "addr:housenumber": "500", 
        "building": "commercial", 
        "addr:city": "New York", 
        "wikipedia": "en:500 Fifth Avenue", 
        "wikidata": "Q133599", 
        "nycdoitt:bin": "1034199", 
        "start_date": "1931", 
        "addr:street": "5th Avenue"
    }, 
    "Don Peterson": {
        "addr:housenumber": "500", 
        "website": "https://newark1.com", 
        "description": "Freelance Web Designer", 
        "office": "it", 
        "addr:postcode": "10110", 
        "addr:state": "NY", 
        "addr:city": "New York", 
        "addr:street": "5th Avenue"
    }, 
    "Inner Enlightenment Spiritist Society": {
        "addr:door": "406", 
        "website": "https://www.innerenlightenment.com/", 
        "amenity": "place_of_worship", 
        "short_name": "IESS", 
        "level": "3", 
        "denomination": "spiritist", 
        "religion": "christian"
    }, 
    "New York public library": {
        "name:fr": "Bibliothèque", 
        "name:en": "New York public library", 
        "office": "government"
    }, 
    "H&M": {
        "shop": "clothes", 
        "brand": "H&M", 
        "brand:wikidata": "Q188326", 
        "brand:wikipedia": "en:H&M"
    }, 
    "Starbucks": {
        "cuisine": "coffee_shop", 
        "amenity": "cafe", 
        "brand": "Starbucks", 
        "official_name": "Starbucks Coffee", 
        "brand:wikidata": "Q37158", 
        "takeaway": "yes", 
        "brand:wikipedia": "en:Starbucks", 
        "internet_access": "wlan"
    }, 
    "Madison Avenue & East 42nd Street": {
        "highway": "bus_stop"
    }, 
    "Sephora": {
        "addr:housenumber": "300", 
        "shop": "cosmetics", 
        "addr:postcode": "10017", 
        "brand": "Sephora", 
        "website": "https://www.sephora.com/stores/new-york-42nd-madison", 
        "phone": "+1-212-503-0800", 
        "brand:wikidata": "Q2408041", 
        "branch": "42nd & Madison", 
        "opening_hours": "Mo-Fr 08:00-20:00; Sa 10:00-20:00; Su 11:00-18:00", 
        "addr:street": "Madison Avenue", 
        "brand:wikipedia": "en:Sephora"
    }, 
    "300 Madison Avenue": {
        "addr:housenumber": "300", 
        "building": "yes", 
        "addr:city": "New York", 
        "building:part": "yes", 
        "building:material": "glass", 
        "addr:postcode": "10017", 
        "roof:material": "concrete", 
        "height": "42", 
        "roof:shape": "flat", 
        "wikidata": "Q43864717", 
        "nycdoitt:bin": "1085972", 
        "start_date": "2003", 
        "addr:street": "Madison Avenue"
    }, 
    "Alden Shoes": {
        "addr:housenumber": "340", 
        "shop": "shoes", 
        "payment:mastercard": "yes", 
        "payment:discover_card": "yes", 
        "addr:postcode": "10173", 
        "payment:visa": "yes", 
        "website": "https://aldenmadison.com", 
        "phone": "+1 212-687-3023", 
        "shoes:men": "yes", 
        "opening_hours": "Mo-Fr 08:00-18:00; Sa 09:00-17:00; Su 11:00-17:00", 
        "payment:american_express": "yes", 
        "addr:street": "Madison Avenue"
    }, 
    "East 42nd Street & Madison Avenue": {
        "network": "M42", 
        "shelter": "no", 
        "bus": "yes", 
        "bench": "no", 
        "public_transport": "platform", 
        "highway": "bus_stop"
    }, 
    "Money Exchange": {
        "amenity": "bureau_de_change"
    }, 
    "PNC Bank": {
        "amenity": "bank", 
        "addr:postcode": "10017", 
        "brand": "PNC Bank", 
        "contact:phone": "+1 (212) 661-1064", 
        "brand:wikidata": "Q38928", 
        "opening_hours": "Mo-Sa 07:00-19:00", 
        "contact:website": "http://www.pnc.com", 
        "brand:wikipedia": "en:PNC Financial Services"
    }, 
    "Cheap Car Lease NYC": {
        "addr:housenumber": "342", 
        "shop": "car_rental", 
        "addr:city": "New York", 
        "addr:postcode": "10017", 
        "addr:state": "NY", 
        "website": "http://cheapcarleasenyc.com", 
        "phone": "+1-718-307-5662", 
        "addr:street": "Madison Avenue"
    }, 
    "Croton Reservoir": {
        "end_date": "1899", 
        "wikipedia": "en:Croton Distributing Reservoir", 
        "ele": "21", 
        "historic": "reservoir", 
        "wikidata": "Q5188981", 
        "gnis:feature_id": "2062673", 
        "start_date": "1842"
    }, 
    "and other stories": {
        "shop": "clothes", 
        "addr:postcode": "10017", 
        "website": "https://www.stories.com/", 
        "name:en": "and other stories"
    }, 
    "New York Public Library": {
        "amenity": "library", 
        "name:ko": "뉴욕 공립도서관", 
        "wikidata": "Q7013887", 
        "alt_name": "The Humanities And Social Sciences Library;Stephen A. Schwarzman Building", 
        "name:ru": "Нью-Йоркская публичная библиотека", 
        "name:ast": "Biblioteca Pública de Nueva York", 
        "addr:housenumber": "476", 
        "opening_hours": "Mo,Th 08:00-20:00; Tu,We 08:00-21:00; Fr 08:00-18:00; Sa 10:00-18:00; Su 10:00-17:00", 
        "wikipedia": "en:New York Public Library", 
        "addr:state": "NY", 
        "ele": "21", 
        "gnis:feature_id": "2083155", 
        "nycdoitt:bin": "1034194", 
        "name:zh": "紐約圖書館", 
        "website": "http://www.nypl.org/", 
        "name:uk": "Нью-Йоркська публічна бібліотека", 
        "tourism": "attraction", 
        "addr:street": "5th Avenue", 
        "building": "library", 
        "building:colour": "#DFDAC7", 
        "addr:city": "New York", 
        "addr:postcode": "10018", 
        "wheelchair": "yes", 
        "gnis:reviewed": "no", 
        "name:es": "Biblioteca Pública de Nueva York", 
        "internet_access": "wlan"
    }, 
    "Le Pain Quotidien": {
        "cuisine": "coffee_shop", 
        "amenity": "cafe", 
        "level": "0", 
        "opening_hours": "Mo-Fr 07:00-19:00, Sa-Su 08:00-16:00", 
        "brand": "Le Pain Quotidien", 
        "brand:wikidata": "Q2046903", 
        "takeaway": "yes", 
        "wheelchair": "yes", 
        "brand:wikipedia": "en:Le Pain Quotidien"
    }, 
    "Chick-fil-A": {
        "addr:housenumber": "50", 
        "cuisine": "chicken", 
        "amenity": "fast_food", 
        "addr:postcode": "10017", 
        "brand": "Chick-fil-A", 
        "opening_hours": "Mo-Sa 06:30-22:00", 
        "website": "https://www.chick-fil-a.com/Locations/NY/42nd--Madison-InLine", 
        "phone": "+1 917-261-6415", 
        "addr:street": "East 42nd Street", 
        "brand:wikidata": "Q491516", 
        "branch": "42nd & Madison", 
        "takeaway": "yes", 
        "internet_access": "wlan", 
        "brand:wikipedia": "en:Chick-fil-A"
    }, 
    "505 Fifth Avenue": {
        "addr:housenumber": "505", 
        "building": "commercial", 
        "start_date": "2006", 
        "addr:street": "5th Avenue"
    }, 
    "489 5th Avenue": {
        "building": "yes", 
        "nycdoitt:bin": "1076266", 
        "start_date": "1970"
    }, 
    "509 Fifth Avenue": {
        "addr:housenumber": "509", 
        "building": "commercial", 
        "fixme": "height", 
        "building:levels": "12", 
        "addr:postcode": "10017", 
        "height": "49.9", 
        "nycdoitt:bin": "1035354", 
        "addr:street": "5th Avenue"
    }, 
    "Bryant Park Grill": {
        "website": "http://arkrestaurants.com/bryant_park/", 
        "amenity": "restaurant"
    }, 
    "The Forefront Law Group": {
        "addr:housenumber": "489", 
        "payment:bitcoin": "yes", 
        "addr:city": "New York", 
        "office": "lawyer", 
        "addr:postcode": "10017", 
        "addr:housename": "Suite 3100", 
        "website": "http://www.the-forefront.com/", 
        "addr:street": "5th Avenue"
    }, 
    "Little Italy": {
        "addr:housenumber": "1", 
        "cuisine": "pizza", 
        "amenity": "fast_food", 
        "level": "0", 
        "addr:postcode": "10017", 
        "outdoor_seating": "no", 
        "fax": "212-687-3040", 
        "phone": "212-661-1425;212-687-3660", 
        "addr:street": "East 43rd Street"
    }, 
    "The North Face": {
        "shop": "clothes", 
        "brand": "The North Face", 
        "brand:wikipedia": "en:The North Face", 
        "brand:wikidata": "Q152784", 
        "alt_name": "North Face"
    }, 
    "Mets Clubhouse Shop": {
        "shop": "clothes"
    }, 
    "Bravo Pizza": {
        "amenity": "fast_food"
    }, 
    "Unification Church Headquarters": {
        "amenity": "public_building", 
        "gnis:county_name": "New York", 
        "source": "USGS Geonames", 
        "addr:state": "NY", 
        "ele": "21", 
        "gnis:reviewed": "no", 
        "gnis:import_uuid": "57871b70-0100-4405-bb30-88b2e001a944", 
        "gnis:feature_id": "2083166"
    }, 
    "W 42 St / 5 Av": {
        "bus": "yes", 
        "public_transport": "platform", 
        "highway": "bus_stop"
    }, 
    "Lefcourt National Building": {
        "addr:housenumber": "521", 
        "building": "yes", 
        "addr:city": "New York", 
        "addr:postcode": "10017", 
        "nycdoitt:bin": "1035355", 
        "start_date": "1929", 
        "addr:street": "5th Avenue"
    }, 
    "Cafe Metro": {
        "amenity": "cafe"
    }, 
    "One Vanderbilt": {
        "building": "construction", 
        "landuse": "construction", 
        "wikipedia": "en:One Vanderbilt", 
        "height": "215", 
        "note": "final height 427m", 
        "wikidata": "Q18398409", 
        "nycdoitt:bin": "1035349"
    }, 
    "340 Madison Avenue": {
        "addr:housenumber": "340", 
        "building": "yes", 
        "addr:street": "Madison Avenue", 
        "nycdoitt:bin": "1035357", 
        "addr:postcode": "10017"
    }, 
    "Andaz": {
        "addr:housenumber": "485", 
        "website": "https://newyork.5thavenue.andaz.hyatt.com/", 
        "addr:city": "New York", 
        "addr:postcode": "10017", 
        "tourism": "hotel", 
        "addr:street": "5th Avenue"
    }, 
    "Emigrant Savings Bank Building": {
        "building": "commercial", 
        "brand:wikipedia": "en:Emigrant Savings Bank", 
        "nycdoitt:bin": "1035347", 
        "brand:wikidata": "Q5371104", 
        "start_date": "1969"
    }, 
    "Sidewalk Clock at 522 5th Avenue": {
        "amenity": "clock", 
        "historic": "yes", 
        "wikidata": "Q6105178", 
        "ref:nrhp": "85000929"
    }, 
    "W. R. Grace Building": {
        "addr:housenumber": "1114", 
        "building": "commercial", 
        "wikipedia": "en:W. R. Grace Building", 
        "wikidata": "Q685377", 
        "nycdoitt:bin": "1034196", 
        "start_date": "1974", 
        "addr:street": "6th Avenue"
    }, 
    "Nat Sherman Townhouse": {
        "addr:housenumber": "12", 
        "building": "retail", 
        "addr:city": "New York", 
        "shop": "tobacco", 
        "phone": "+1 212-764-5000", 
        "addr:postcode": "10017", 
        "roof:material": "concrete", 
        "height": "9", 
        "website": "https://www.natsherman.com/", 
        "roof:shape": "flat", 
        "opening_hours": "Mo-Sa 10:00-19:00; Su 11:00-18:00", 
        "addr:street": "East 42nd Street"
    }, 
    "Urban Outfitters": {
        "shop": "clothes", 
        "brand": "Urban Outfitters", 
        "brand:wikidata": "Q3552193", 
        "brand:wikipedia": "en:Urban Outfitters"
    }, 
    "Fila": {
        "shop": "shoes", 
        "addr:postcode": "10173", 
        "opening_hours": "Mo-Fr 08:00-17:00"
    }, 
    "Bryant Park public toilets": {
        "amenity": "toilets", 
        "fee": "no"
    }, 
    "Gertrude Stein statue": {
        "historic": "monument"
    }, 
    "food exchange": {
        "amenity": "fast_food"
    }, 
    "SUNY State College of Optometry": {
        "building": "college", 
        "website": "https://www.sunyopt.edu/", 
        "amenity": "college", 
        "wikipedia": "en:State University of New York College of Optometry", 
        "official_name": "State University of New York College of Optometry", 
        "height": "89.0", 
        "wikidata": "Q14707354", 
        "ele": "21", 
        "gnis:feature_id": "2083165", 
        "nycdoitt:bin": "1034197", 
        "start_date": "1912"
    }, 
    "M&T Bank": {
        "brand:wikidata": "Q3272257", 
        "amenity": "bank", 
        "brand": "M&T Bank", 
        "brand:wikipedia": "en:M&T Bank"
    }, 
    "Elite Bureau Club V.I.P.": {
        "addr:housenumber": "340", 
        "website": "https://www.elitebureauclubvip.com/", 
        "addr:city": "New York", 
        "office": "company", 
        "addr:postcode": "10173", 
        "addr:state": "NY", 
        "phone": "+1-646-575-4117", 
        "addr:country": "US", 
        "addr:street": "Madison Avenue"
    }, 
    "West 42nd Street & 5th Avenue": {
        "shelter": "no", 
        "bus": "yes", 
        "public_transport": "platform", 
        "highway": "bus_stop", 
        "bench": "no"
    }, 
    "Zara": {
        "shop": "clothes", 
        "brand": "Zara", 
        "brand:wikidata": "Q147662", 
        "brand:wikipedia": "en:Zara (retailer)"
    }, 
    "Cohen's Fashion Optical": {
        "shop": "optician", 
        "short_name": "Cohen's", 
        "brand": "Cohen's Fashion Optical", 
        "brand:wikidata": "Q5141313", 
        "healthcare": "optometrist", 
        "brand:wikipedia": "en:Cohen's Fashion Optical"
    }, 
    "Chase": {
        "brand:wikipedia": "en:Chase Bank", 
        "amenity": "bank", 
        "atm": "yes", 
        "brand": "Chase", 
        "brand:wikidata": "Q524629"
    }
}