{
    "Five Guys": {
        "addr:housenumber": "8505", 
        "cuisine": "burger", 
        "amenity": "fast_food", 
        "addr:city": "Houston", 
        "addr:postcode": "77025", 
        "brand": "Five Guys", 
        "official_name": "Five Guys Burgers and Fries", 
        "addr:street": "South Main Street", 
        "addr:state": "TX", 
        "takeaway": "yes", 
        "brand:wikipedia": "en:Five Guys", 
        "brand:wikidata": "Q1131810"
    }, 
    "Akashi Asian Sushi Cuisine & Wine Bar": {
        "addr:housenumber": "8216", 
        "cuisine": "asian;japanese", 
        "amenity": "restaurant", 
        "addr:city": "Houston", 
        "addr:postcode": "77054", 
        "addr:state": "TX", 
        "addr:street": "Kirby Drive"
    }, 
    "Bank of America Financial Center": {
        "addr:housenumber": "1010", 
        "building": "yes", 
        "amenity": "bank", 
        "addr:city": "Houston", 
        "addr:postcode": "77054", 
        "addr:state": "TX", 
        "addr:street": "Old Spanish Trail"
    }, 
    "Fannin Substation": {
        "substation": "distribution", 
        "barrier": "fence", 
        "power": "substation", 
        "frequency": "60", 
        "location": "outdoor", 
        "operator": "CenterPoint Energy", 
        "voltage": "138000;34500"
    }, 
    "SpringHill Suites Houston Medical Center/NRG Park": {
        "building": "yes", 
        "tourism": "hotel"
    }, 
    "Office Depot": {
        "shop": "stationery", 
        "brand": "Office Depot", 
        "brand:wikidata": "Q1337797", 
        "brand:wikipedia": "en:Office Depot"
    }, 
    "The UPS Store": {
        "addr:housenumber": "1333", 
        "amenity": "post_office", 
        "addr:city": "Houston", 
        "addr:postcode": "77054", 
        "addr:state": "TX", 
        "addr:street": "Old Spanish Trail"
    }, 
    "Viet's Express": {
        "addr:housenumber": "8057", 
        "amenity": "restaurant", 
        "addr:city": "Houston", 
        "addr:postcode": "77054", 
        "addr:state": "TX", 
        "addr:street": "Kirby Drive"
    }, 
    "Chipotle": {
        "addr:housenumber": "8505", 
        "cuisine": "mexican", 
        "amenity": "fast_food", 
        "addr:city": "Houston", 
        "addr:postcode": "77025", 
        "brand": "Chipotle", 
        "official_name": "Chipotle Mexican Grill", 
        "addr:street": "South Main Street", 
        "addr:state": "TX", 
        "takeaway": "yes", 
        "brand:wikipedia": "en:Chipotle Mexican Grill", 
        "brand:wikidata": "Q465751"
    }, 
    "Walgreens Pharmacy": {
        "addr:housenumber": "7929", 
        "building": "yes", 
        "amenity": "pharmacy", 
        "addr:city": "Houston", 
        "addr:postcode": "77054", 
        "layer": "1", 
        "addr:state": "TX", 
        "dispensing": "yes", 
        "healthcare": "pharmacy", 
        "addr:street": "Kirby Drive"
    }, 
    "Capital One Bank": {
        "addr:housenumber": "7919", 
        "building": "yes", 
        "amenity": "bank", 
        "addr:city": "Houston", 
        "addr:postcode": "77054", 
        "layer": "1", 
        "addr:state": "TX", 
        "addr:street": "Kirby Drive"
    }, 
    "Fiesta": {
        "addr:housenumber": "8130", 
        "shop": "supermarket", 
        "addr:city": "Houston", 
        "addr:postcode": "77054", 
        "addr:state": "TX", 
        "addr:street": "Kirby Drive"
    }, 
    "GameStop": {
        "addr:housenumber": "8138", 
        "shop": "video_games", 
        "addr:city": "Houston", 
        "addr:postcode": "77054", 
        "brand": "GameStop", 
        "addr:state": "TX", 
        "brand:wikidata": "Q202210", 
        "addr:street": "Kirby Drive", 
        "brand:wikipedia": "en:GameStop"
    }, 
    "Glazed the Doughnut Cafe": {
        "addr:housenumber": "1333", 
        "amenity": "restaurant", 
        "addr:city": "Houston", 
        "addr:postcode": "77054", 
        "addr:state": "TX", 
        "addr:street": "Old Spanish Trail"
    }, 
    "Catfish Station": {
        "addr:housenumber": "8110", 
        "building": "yes", 
        "amenity": "restaurant", 
        "addr:city": "Houston", 
        "cuisine": "fried_food", 
        "addr:postcode": "77054", 
        "addr:state": "TX", 
        "addr:street": "Kirby Drive"
    }, 
    "Olive Garden": {
        "addr:housenumber": "1010", 
        "building": "yes", 
        "amenity": "restaurant", 
        "addr:city": "Houston", 
        "cuisine": "italian", 
        "addr:postcode": "77054", 
        "brand": "Olive Garden", 
        "addr:state": "TX", 
        "website": "olivegarden.com", 
        "phone": "+1-713-665-6373", 
        "brand:wikidata": "Q3045312", 
        "opening_hours": "Su-Th 11:00-22:00, Fr-Sa 11:00-23:00", 
        "addr:street": "Old Spanish Trail", 
        "brand:wikipedia": "en:Olive Garden"
    }, 
    "Taco Cabana": {
        "cuisine": "mexican", 
        "amenity": "fast_food", 
        "brand": "Taco Cabana", 
        "brand:wikidata": "Q12070488", 
        "takeaway": "yes", 
        "brand:wikipedia": "en:Taco Cabana"
    }, 
    "Freebirds World Burrito": {
        "addr:housenumber": "8057", 
        "amenity": "restaurant", 
        "addr:city": "Houston", 
        "addr:postcode": "77054", 
        "addr:state": "TX", 
        "addr:street": "Kirby Drive"
    }, 
    "Texas Medical Center": {
        "website": "https://www.tmc.edu/", 
        "source": "http://www.tmcmaps.info/img/TMC_Campus_Map_1_rev_2.pdf", 
        "wikidata": "Q2323511", 
        "wikipedia": "en:Texas Medical Center", 
        "place": "quarter"
    }, 
    "TGF Hair Salon": {
        "addr:housenumber": "8138", 
        "shop": "hairdresser", 
        "addr:city": "Houston", 
        "addr:postcode": "77054", 
        "addr:state": "TX", 
        "addr:street": "Kirby Drive"
    }, 
    "Extended Stay America - Houston - Med. Ctr. - NRG Park - Kirby": {
        "building": "yes", 
        "tourism": "hotel"
    }, 
    "NRG Park": {
        "landuse": "civic", 
        "place": "locality"
    }, 
    "Infinite Smiles Family Dentistry": {
        "addr:housenumber": "1333", 
        "amenity": "dentist", 
        "addr:city": "Houston", 
        "addr:postcode": "77054", 
        "addr:state": "TX", 
        "healthcare": "dentist", 
        "addr:street": "Old Spanish Trail"
    }, 
    "Big Lots": {
        "addr:housenumber": "8210", 
        "shop": "department_store", 
        "addr:city": "Houston", 
        "addr:postcode": "77054", 
        "brand": "Big Lots", 
        "addr:state": "TX", 
        "brand:wikidata": "Q4905973", 
        "addr:street": "Kirby Drive", 
        "brand:wikipedia": "en:Big Lots"
    }, 
    "Pizza Hut": {
        "addr:housenumber": "8057", 
        "cuisine": "pizza", 
        "amenity": "restaurant", 
        "addr:city": "Houston", 
        "addr:postcode": "77054", 
        "brand": "Pizza Hut", 
        "addr:state": "TX", 
        "brand:wikidata": "Q191615", 
        "addr:street": "Kirby Drive", 
        "brand:wikipedia": "en:Pizza Hut"
    }, 
    "Domain at Kirby": {
        "addr:housenumber": "1333", 
        "building": "apartments", 
        "addr:city": "Houston", 
        "addr:postcode": "77054", 
        "addr:state": "TX", 
        "addr:street": "Old Spanish Trail"
    }, 
    "Purple Lot": {
        "amenity": "parking", 
        "old_name": "McNee Lot", 
        "capacity": "941", 
        "parking": "surface"
    }, 
    "Holiday Inn Houston - NRG/Medical Center Area": {
        "building": "yes", 
        "tourism": "motel"
    }, 
    "Antone's Import Co.": {
        "addr:housenumber": "8057", 
        "amenity": "restaurant", 
        "addr:city": "Houston", 
        "addr:postcode": "77054", 
        "addr:state": "TX", 
        "addr:street": "Kirby Drive"
    }, 
    "PetSmart": {
        "shop": "pet", 
        "brand": "PetSmart", 
        "brand:wikidata": "Q3307147", 
        "brand:wikipedia": "en:PetSmart"
    }, 
    "North Kirby Lot": {
        "amenity": "parking", 
        "capacity": "1398", 
        "parking": "surface"
    }, 
    "Royal Nails & Spa": {
        "addr:housenumber": "8505", 
        "shop": "beauty", 
        "addr:city": "Houston", 
        "beauty": "nails", 
        "addr:postcode": "77025", 
        "addr:state": "TX", 
        "addr:street": "South Main Street"
    }
}