{
    "Marathon Sports": {
        "addr:housenumber": "671", 
        "shop": "sports", 
        "opening_hours": "Mo-Fr 10:00-19:30; Sa 10:00-20:00; Su 11:00-18:00", 
        "brand": "Marathon Sports", 
        "phone": "+16172674774", 
        "brand:wikidata": "Q3027516", 
        "brand:wikipedia": "es:Marathon Sports", 
        "addr:street": "Boylston Street"
    }, 
    "Santander": {
        "addr:housenumber": "575", 
        "amenity": "bank", 
        "brand": "Santander", 
        "atm": "yes", 
        "brand:wikidata": "Q5835668", 
        "addr:street": "Boylston Street", 
        "brand:wikipedia": "en:Santander Bank"
    }, 
    "Block C": {
        "landuse": "commercial"
    }, 
    "CVS": {
        "amenity": "pharmacy", 
        "opening_hours": "24/7", 
        "brand": "CVS", 
        "brand:wikidata": "Q2078880", 
        "healthcare": "pharmacy", 
        "brand:wikipedia": "en:CVS Pharmacy", 
        "wheelchair": "yes", 
        "addr:street": "Boylston Street"
    }, 
    "Old South Church": {
        "addr:housenumber": "645", 
        "building": "church", 
        "amenity": "place_of_worship", 
        "gnis:state_id": "25", 
        "addr:city": "Boston", 
        "building:height": "20.8", 
        "building:material": "stone", 
        "contact:website": "http://www.oldsouth.org/", 
        "level": "10", 
        "wikipedia": "en:Old South Church", 
        "gnis:county_id": "025", 
        "addr:state": "MA", 
        "religion": "christian", 
        "wikidata": "Q1059013", 
        "gnis:created": "08/27/2002", 
        "gnis:feature_id": "606998", 
        "image": "https://commons.wikimedia.org/wiki/File:2027-BOS-Old_South_Church0.jpg", 
        "addr:street": "Boylston Street"
    }, 
    "Copley": {
        "tram": "yes", 
        "railway": "tram_stop", 
        "public_transport": "stop_position"
    }, 
    "Chipotle": {
        "cuisine": "mexican", 
        "amenity": "fast_food", 
        "brand": "Chipotle", 
        "diet:vegetarian": "yes", 
        "official_name": "Chipotle Mexican Grill", 
        "brand:wikidata": "Q465751", 
        "takeaway": "yes", 
        "brand:wikipedia": "en:Chipotle Mexican Grill"
    }, 
    "Admirals Bank": {
        "addr:housenumber": "581", 
        "amenity": "bank", 
        "atm": "yes", 
        "addr:street": "Boylston Street"
    }, 
    "Snowden International High": {
        "addr:housenumber": "150", 
        "amenity": "school", 
        "attribution": "Office of Geographic and Environmental Information (MassGIS)", 
        "addr:city": "Boston", 
        "addr:postcode": "02116", 
        "massgis:school_id": "00350690", 
        "addr:state": "MA", 
        "source_url": "http://mass.gov/mgis/schools.htm", 
        "phone": "617-635-9989", 
        "grades": "9,10,11,12", 
        "type": "Public", 
        "addr:street": "Newbury Street"
    }, 
    "Boston Marathon Finish Line": {}, 
    "Bromer Booksellers": {
        "addr:housenumber": "607", 
        "building": "yes", 
        "shop": "books", 
        "website": "https://www.bromer.com/shop/bromer/index.html", 
        "phone": "+1-617-247-2818", 
        "addr:street": "Boylston Street"
    }, 
    "Fairmont Copley Plaza, Boston": {
        "building": "yes", 
        "building:colour": "#FFFFCC", 
        "fixme": "heights estimated", 
        "building:height": "27", 
        "building:levels": "7", 
        "roof:material": "concrete", 
        "wikipedia": "en:The Fairmont Copley Plaza Hotel", 
        "building:material": "stone", 
        "wikidata": "Q7733116", 
        "tourism": "hotel"
    }, 
    "Norman B. Leventhal Map Center": {
        "amenity": "library", 
        "wikidata": "Q7051939", 
        "level": "2"
    }, 
    "Blue Bikes - Boston Public Library - 700 Boylston St.": {
        "amenity": "bicycle_rental", 
        "capacity": "23", 
        "network": "Blue Bikes", 
        "operator": "Motivate", 
        "old_name": "Hubway", 
        "source:website": "http://thehubway.com/stations", 
        "ref": "D32005"
    }, 
    "Newsfeed Cafe": {
        "amenity": "cafe"
    }, 
    "Newbury Street": {
        "landuse": "commercial", 
        "wikidata": "Q7017243"
    }, 
    "Copley Square": {
        "gnis:state_id": "25", 
        "gnis:county_id": "025", 
        "leisure": "park", 
        "ele": "5", 
        "wikidata": "Q901479", 
        "gnis:created": "08/27/2002", 
        "gnis:feature_id": "599977"
    }, 
    "Finagle A Bagel": {
        "cuisine": "bagel", 
        "amenity": "fast_food", 
        "brand": "Finagle A Bagel"
    }, 
    "Charlesmark Hotel": {
        "building": "yes", 
        "building:height": "15.4", 
        "roof:shape": "flat", 
        "roof:material": "concrete", 
        "source": "bing", 
        "tourism": "hotel"
    }, 
    "7-Eleven": {
        "shop": "convenience", 
        "brand": "7-Eleven", 
        "brand:wikidata": "Q259340", 
        "brand:wikipedia": "en:7-Eleven"
    }, 
    "Saint James Ave @ Dartmouth St": {
        "bin": "yes", 
        "attribution": "massDOT", 
        "network": "MBTA", 
        "shelter": "yes", 
        "bus": "yes", 
        "bench": "yes", 
        "source": "massdot_import_081211", 
        "public_transport": "stop_position", 
        "operator": "MBTA", 
        "ref": "178", 
        "highway": "bus_stop"
    }, 
    "Snowden International School Library": {
        "addr:housenumber": "150", 
        "amenity": "library", 
        "attribution": "Office of Geographic and Environmental Information (MassGIS)", 
        "addr:city": "Boston", 
        "addr:postcode": "02116", 
        "region": "Boston", 
        "addr:state": "MA", 
        "ref:isil": "OCLC-SNWIS", 
        "source": "USGS Geonames", 
        "operator": "Snowden International School", 
        "wikidata": "Q7548578", 
        "source:url": "http://mass.gov/mgis/libraries.htm", 
        "gnis:feature_id": "2343431", 
        "addr:street": "Newbury Street", 
        "type": "School", 
        "gnis:county_name": "Suffolk"
    }, 
    "Block D": {
        "landuse": "commercial"
    }, 
    "Copley Station - Outbound": {
        "attribution": "massDOT", 
        "network": "MBTA", 
        "bus": "yes", 
        "source": "massdot_import_081211", 
        "public_transport": "platform", 
        "operator": "MBTA", 
        "ref": "70155", 
        "highway": "bus_stop"
    }, 
    "Wendy's": {
        "addr:housenumber": "551", 
        "cuisine": "burger", 
        "amenity": "fast_food", 
        "brand": "Wendy's", 
        "diet:vegetarian": "no", 
        "brand:wikidata": "Q550258", 
        "takeaway": "yes", 
        "brand:wikipedia": "en:Wendy's", 
        "addr:street": "Boylston Street"
    }, 
    "First Spiritualist Temple": {
        "amenity": "place_of_worship", 
        "gnis:state_id": "25", 
        "gnis:county_id": "025", 
        "ele": "5", 
        "gnis:created": "01/15/2003", 
        "gnis:feature_id": "1971247"
    }, 
    "The Lenox": {
        "addr:housenumber": "61", 
        "building": "hotel", 
        "gnis:county_name": "Suffolk", 
        "source": "USGS Geonames", 
        "building:levels": "10", 
        "roof:material": "concrete", 
        "addr:state": "MA", 
        "ele": "5", 
        "gnis:reviewed": "no", 
        "building:material": "brick", 
        "gnis:import_uuid": "57871b70-0100-4405-bb30-88b2e001a944", 
        "wikidata": "Q7746923", 
        "building:name": "McKim Building", 
        "roof:shape": "flat", 
        "tourism": "hotel", 
        "gnis:feature_id": "1971528", 
        "addr:street": "Exeter Street"
    }, 
    "Citizens Bank": {
        "amenity": "bank", 
        "atm": "yes", 
        "brand": "Citizens Bank"
    }, 
    "John Hancock Tower": {
        "addr:housenumber": "200", 
        "building": "yes", 
        "gnis:county_name": "Suffolk", 
        "gnis:reviewed": "no", 
        "wikipedia": "en:John Hancock Tower", 
        "addr:state": "MA", 
        "ele": "3", 
        "source": "USGS Geonames", 
        "wikidata": "Q798416", 
        "gnis:import_uuid": "57871b70-0100-4405-bb30-88b2e001a944", 
        "gnis:feature_id": "600087", 
        "addr:street": "Clarendon Street"
    }, 
    "The Charlesmark": {
        "addr:housenumber": "655", 
        "building": "yes", 
        "addr:city": "Boston", 
        "building:height": "21.4", 
        "addr:postcode": "02116", 
        "roof:material": "concrete", 
        "addr:state": "MA", 
        "roof:shape": "flat", 
        "source": "bing", 
        "tourism": "hotel", 
        "addr:street": "Boylston Street"
    }, 
    "Blue Bikes - New Balance Store - Boylston at Dartmouth": {
        "amenity": "bicycle_rental", 
        "capacity": "15", 
        "network": "Blue Bikes", 
        "operator": "Motivate", 
        "old_name": "Hubway", 
        "source:website": "http://thehubway.com/stations", 
        "ref": "D32027"
    }
}